,item,articleDE,articleEN,location,distance,lat,lon,sitelinks,thing,itemLabel,thingLabel,tier,color,ao_link,name,ao_description,address,url,description,fetched_coordinates
0,http://www.wikidata.org/entity/Q23538,https://de.wikipedia.org/wiki/%C3%84quator,https://en.wikipedia.org/wiki/Equator,Point(0.0 0.0),0.0,0.0,0.0,154.0,http://www.wikidata.org/entity/Q146591,equator,circle of latitude,S,orange,,,,,,,
2,http://www.wikidata.org/entity/Q16896007,https://de.wikipedia.org/wiki/Null_Island,https://en.wikipedia.org/wiki/Null_Island,Point(0.0 0.0),0.0,0.0,0.0,24.0,http://www.wikidata.org/entity/Q960648,Null Island,point of interest,S,orange,,,,,,,
3,http://www.wikidata.org/entity/Q24041662,,https://en.wikipedia.org/wiki/Soul_buoy,Point(0.0 0.0),0.0,0.0,0.0,3.0,http://www.wikidata.org/entity/Q2922685,Soul buoy,weather buoy,C,yellow,,,,,,,
4,http://www.wikidata.org/entity/Q128406604,,,Point(0.0 0.0),0.0,0.0,0.0,1.0,http://www.wikidata.org/entity/Q15069452,Q128406604,Natura 2000 protected area,D,blue,,,,,,,
5,http://www.wikidata.org/entity/Q128427526,,,Point(0.0 0.0),0.0,0.0,0.0,1.0,http://www.wikidata.org/entity/Q15069452,Q128427526,Natura 2000 protected area,D,blue,,,,,,,
6,http://www.wikidata.org/entity/Q128427643,,,Point(0.0 0.0),0.0,0.0,0.0,1.0,http://www.wikidata.org/entity/Q15069452,Q128427643,Natura 2000 protected area,D,blue,,,,,,,
7,http://www.wikidata.org/entity/Q128428106,,,Point(0.0 0.0),0.0,0.0,0.0,1.0,http://www.wikidata.org/entity/Q15069452,Q128428106,Natura 2000 protected area,D,blue,,,,,,,
8,http://www.wikidata.org/entity/Q128428716,,,Point(0.0 0.0),0.0,0.0,0.0,1.0,http://www.wikidata.org/entity/Q15069452,Q128428716,Natura 2000 protected area,D,blue,,,,,,,
9,http://www.wikidata.org/entity/Q128428866,,,Point(0.0 0.0),0.0,0.0,0.0,1.0,http://www.wikidata.org/entity/Q15069452,Q128428866,Natura 2000 protected area,D,blue,,,,,,,
10,http://www.wikidata.org/entity/Q128429541,,,Point(0.0 0.0),0.0,0.0,0.0,1.0,http://www.wikidata.org/entity/Q15069452,Q128429541,Natura 2000 protected area,D,blue,,,,,,,
11,http://www.wikidata.org/entity/Q128429756,,,Point(0.0 0.0),0.0,0.0,0.0,1.0,http://www.wikidata.org/entity/Q15069452,Q128429756,Natura 2000 protected area,D,blue,,,,,,,
12,http://www.wikidata.org/entity/Q128429916,,,Point(0.0 0.0),0.0,0.0,0.0,1.0,http://www.wikidata.org/entity/Q15069452,Q128429916,Natura 2000 protected area,D,blue,,,,,,,
13,http://www.wikidata.org/entity/Q128429927,,,Point(0.0 0.0),0.0,0.0,0.0,1.0,http://www.wikidata.org/entity/Q15069452,Q128429927,Natura 2000 protected area,D,blue,,,,,,,
14,http://www.wikidata.org/entity/Q128429938,,,Point(0.0 0.0),0.0,0.0,0.0,1.0,http://www.wikidata.org/entity/Q15069452,Q128429938,Natura 2000 protected area,D,blue,,,,,,,
15,http://www.wikidata.org/entity/Q128429948,,,Point(0.0 0.0),0.0,0.0,0.0,1.0,http://www.wikidata.org/entity/Q15069452,Q128429948,Natura 2000 protected area,D,blue,,,,,,,
16,http://www.wikidata.org/entity/Q128429958,,,Point(0.0 0.0),0.0,0.0,0.0,1.0,http://www.wikidata.org/entity/Q15069452,Q128429958,Natura 2000 protected area,D,blue,,,,,,,
17,http://www.wikidata.org/entity/Q128429969,,,Point(0.0 0.0),0.0,0.0,0.0,1.0,http://www.wikidata.org/entity/Q15069452,Q128429969,Natura 2000 protected area,D,blue,,,,,,,
18,http://www.wikidata.org/entity/Q128429980,,,Point(0.0 0.0),0.0,0.0,0.0,1.0,http://www.wikidata.org/entity/Q15069452,Q128429980,Natura 2000 protected area,D,blue,,,,,,,
19,http://www.wikidata.org/entity/Q128429990,,,Point(0.0 0.0),0.0,0.0,0.0,1.0,http://www.wikidata.org/entity/Q15069452,Q128429990,Natura 2000 protected area,D,blue,,,,,,,
20,http://www.wikidata.org/entity/Q128430001,,,Point(0.0 0.0),0.0,0.0,0.0,1.0,http://www.wikidata.org/entity/Q15069452,Q128430001,Natura 2000 protected area,D,blue,,,,,,,
21,http://www.wikidata.org/entity/Q128430012,,,Point(0.0 0.0),0.0,0.0,0.0,1.0,http://www.wikidata.org/entity/Q15069452,Q128430012,Natura 2000 protected area,D,blue,,,,,,,
22,http://www.wikidata.org/entity/Q128430022,,,Point(0.0 0.0),0.0,0.0,0.0,1.0,http://www.wikidata.org/entity/Q15069452,Q128430022,Natura 2000 protected area,D,blue,,,,,,,
23,http://www.wikidata.org/entity/Q128430032,,,Point(0.0 0.0),0.0,0.0,0.0,1.0,http://www.wikidata.org/entity/Q15069452,Q128430032,Natura 2000 protected area,D,blue,,,,,,,
24,http://www.wikidata.org/entity/Q128430043,,,Point(0.0 0.0),0.0,0.0,0.0,1.0,http://www.wikidata.org/entity/Q15069452,Q128430043,Natura 2000 protected area,D,blue,,,,,,,
25,http://www.wikidata.org/entity/Q128430053,,,Point(0.0 0.0),0.0,0.0,0.0,1.0,http://www.wikidata.org/entity/Q15069452,Q128430053,Natura 2000 protected area,D,blue,,,,,,,
26,http://www.wikidata.org/entity/Q128430063,,,Point(0.0 0.0),0.0,0.0,0.0,1.0,http://www.wikidata.org/entity/Q15069452,Q128430063,Natura 2000 protected area,D,blue,,,,,,,
27,http://www.wikidata.org/entity/Q128430074,,,Point(0.0 0.0),0.0,0.0,0.0,1.0,http://www.wikidata.org/entity/Q15069452,Q128430074,Natura 2000 protected area,D,blue,,,,,,,
28,http://www.wikidata.org/entity/Q128430084,,,Point(0.0 0.0),0.0,0.0,0.0,1.0,http://www.wikidata.org/entity/Q15069452,Q128430084,Natura 2000 protected area,D,blue,,,,,,,
29,http://www.wikidata.org/entity/Q128430095,,,Point(0.0 0.0),0.0,0.0,0.0,1.0,http://www.wikidata.org/entity/Q15069452,Q128430095,Natura 2000 protected area,D,blue,,,,,,,
30,http://www.wikidata.org/entity/Q128430108,,,Point(0.0 0.0),0.0,0.0,0.0,1.0,http://www.wikidata.org/entity/Q15069452,Q128430108,Natura 2000 protected area,D,blue,,,,,,,
31,http://www.wikidata.org/entity/Q128430125,,,Point(0.0 0.0),0.0,0.0,0.0,1.0,http://www.wikidata.org/entity/Q15069452,Q128430125,Natura 2000 protected area,D,blue,,,,,,,
32,http://www.wikidata.org/entity/Q128430141,,,Point(0.0 0.0),0.0,0.0,0.0,1.0,http://www.wikidata.org/entity/Q15069452,Q128430141,Natura 2000 protected area,D,blue,,,,,,,
33,http://www.wikidata.org/entity/Q128430151,,,Point(0.0 0.0),0.0,0.0,0.0,1.0,http://www.wikidata.org/entity/Q15069452,Q128430151,Natura 2000 protected area,D,blue,,,,,,,
34,http://www.wikidata.org/entity/Q128430190,,,Point(0.0 0.0),0.0,0.0,0.0,1.0,http://www.wikidata.org/entity/Q15069452,Q128430190,Natura 2000 protected area,D,blue,,,,,,,
35,http://www.wikidata.org/entity/Q128430203,,,Point(0.0 0.0),0.0,0.0,0.0,1.0,http://www.wikidata.org/entity/Q15069452,Q128430203,Natura 2000 protected area,D,blue,,,,,,,
36,http://www.wikidata.org/entity/Q128430213,,,Point(0.0 0.0),0.0,0.0,0.0,1.0,http://www.wikidata.org/entity/Q15069452,Q128430213,Natura 2000 protected area,D,blue,,,,,,,
37,http://www.wikidata.org/entity/Q128430223,,,Point(0.0 0.0),0.0,0.0,0.0,1.0,http://www.wikidata.org/entity/Q15069452,Q128430223,Natura 2000 protected area,D,blue,,,,,,,
38,http://www.wikidata.org/entity/Q128430234,,,Point(0.0 0.0),0.0,0.0,0.0,1.0,http://www.wikidata.org/entity/Q15069452,Q128430234,Natura 2000 protected area,D,blue,,,,,,,
39,http://www.wikidata.org/entity/Q128430244,,,Point(0.0 0.0),0.0,0.0,0.0,1.0,http://www.wikidata.org/entity/Q15069452,Q128430244,Natura 2000 protected area,D,blue,,,,,,,
40,http://www.wikidata.org/entity/Q128430254,,,Point(0.0 0.0),0.0,0.0,0.0,1.0,http://www.wikidata.org/entity/Q15069452,Q128430254,Natura 2000 protected area,D,blue,,,,,,,
41,http://www.wikidata.org/entity/Q128430264,,,Point(0.0 0.0),0.0,0.0,0.0,1.0,http://www.wikidata.org/entity/Q15069452,Q128430264,Natura 2000 protected area,D,blue,,,,,,,
42,http://www.wikidata.org/entity/Q128430275,,,Point(0.0 0.0),0.0,0.0,0.0,1.0,http://www.wikidata.org/entity/Q15069452,Q128430275,Natura 2000 protected area,D,blue,,,,,,,
43,http://www.wikidata.org/entity/Q128430285,,,Point(0.0 0.0),0.0,0.0,0.0,1.0,http://www.wikidata.org/entity/Q15069452,Q128430285,Natura 2000 protected area,D,blue,,,,,,,
81,,,,,,12.94047,77.598779,,,"
Neuropathology Brain Museum
",,atlas_obscura,gold,https://www.atlasobscura.com/places/neuropathology-brain-museum,"
Neuropathology Brain Museum
","
India’s only Brain Museum displays over 200 fascinating ways that your brain might kill you.
",,,,
0,,,,,,0.0,0.0,,,--,Understand,wikivoyage,red,,,,,,,"(0, 0)"
1,,,,,,0.0,0.0,,,--,Understand,wikivoyage,red,,,,,,,"(0, 0)"
2,,,,,,0.0,0.0,,,--,Understand,wikivoyage,red,,,,,,,"(0, 0)"
0,,,,,,0.0,0.0,,,--,Understand_History,wikivoyage,red,,,,,,,"(0, 0)"
0,,,,,,0.0,0.0,,,--,Understand_Climate,wikivoyage,red,,,,,,,"(0, 0)"
1,,,,,,0.0,0.0,,,--,Understand_Climate,wikivoyage,red,,,,,,,"(0, 0)"
2,,,,,,0.0,0.0,,,--,Understand_Climate,wikivoyage,red,,,,,,,"(0, 0)"
0,,,,,,0.0,0.0,,,--,Talk,wikivoyage,red,,,,,,,"(0, 0)"
0,,,,,,13.2004,77.709,,,[[Kempegowda International Airport]] ,Get in,wikivoyage,red,,,,Devanahalli ,http://www.bengaluruairport.com/ ,"The airport is among India's busiest and most modern. The airport is host to 10 domestic airlines and 21 international airlines connecting the city to about 50 destinations.<br />The airport has an international and a domestic terminal. They share the same building, but are on different sides. When departing from the airport, make sure to check restrictions on times for baggage check-in, and make sure to bring a printout of your boarding pass with you to the airport. For flights leaving in the early hours of the morning (such as 3AM), you may need to check in your bags as much as ''2½ hours in advance''.","(13.2004, 77.709)"
0,,,,,,13.2004,77.709,,,[[Kempegowda International Airport]] ,Get in_By plane,wikivoyage,red,,,,Devanahalli ,http://www.bengaluruairport.com/ ,"The airport is among India's busiest and most modern. The airport is host to 10 domestic airlines and 21 international airlines connecting the city to about 50 destinations.<br />The airport has an international and a domestic terminal. They share the same building, but are on different sides. When departing from the airport, make sure to check restrictions on times for baggage check-in, and make sure to bring a printout of your boarding pass with you to the airport. For flights leaving in the early hours of the morning (such as 3AM), you may need to check in your bags as much as ''2½ hours in advance''.","(13.2004, 77.709)"
0,,,,,,0.0,0.0,,,--,Get in_By plane_Airport to central business district,wikivoyage,red,,,,,,,"(0, 0)"
1,,,,,,0.0,0.0,,,--,Get in_By plane_Airport to central business district,wikivoyage,red,,,,,,,"(0, 0)"
2,,,,,,0.0,0.0,,,--,Get in_By plane_Airport to central business district,wikivoyage,red,,,,,,,"(0, 0)"
3,,,,,,0.0,0.0,,,--,Get in_By plane_Airport to central business district,wikivoyage,red,,,,,,,"(0, 0)"
4,,,,,,0.0,0.0,,,--,Get in_By plane_Airport to central business district,wikivoyage,red,,,,,,,"(0, 0)"
0,,,,,,12.977595,77.568083,,,Krantivira Sangolli Rayanna ,Get in_By train,wikivoyage,red,,,,"Railway Station Rd, Kempegowda, Sevashrama ", ,Most local and long-distance trains arrive and depart from here. Platforms: #1 to 7 connect to [[Chennai]] ({{km,"(12.977595, 77.568083)"
1,,,,,,13.022839,77.551174,,,Yesvantpur Junction ,Get in_By train,wikivoyage,red,,,,Tumkur Rd , ,"The other main railway terminal of Bangalore. A few (mostly long-distance) trains arrive and depart from here. All trains towards Hubli stop here. Services: retiring rooms and dormitories, AC VIP Lounge, essential stalls and ATM.","(13.022839, 77.551174)"
2,,,,,,13.00148,77.61847,,,Bangalore East ,Get in_By train,wikivoyage,red,,,,Pottery Rd , ,A smaller one.,"(13.00148, 77.61847)"
3,,,,,,12.993673,77.599327,,,Bangalore Cantonment ,Get in_By train,wikivoyage,red,,,,"Cantonment Railway Station Rd, Kaverappa Layout, Vasanth Nagar ", ,"A smaller one. Services: Passenger Reservation Centre, AC VIP lounge, inquiry counters, essential stalls, Food plaza, ATM. PF-1A (Dead end side of Platform 1) is used for terminating trains like 12509/10 Guwahati Tri-weekly Express, 12503/04 Agartala Humsafar Weekly Express, 18635/36 Hatia Weekly Express, 56503/04 Vijayawada Passenger and 2 DMU services operating from Kolar via Bangarpet. The main platforms are used for halting by all the trains passing through this station except 12007/08 Chennai Mysore shatabdi Express.","(12.993673, 77.599327)"
4,,,,,,13.000534,77.674016,,,Krishnarajapuram railway station ,Get in_By train,wikivoyage,red,,,,"Outer Ring Rd, Jyothi Puram, Krishnarajapura ", ,An important stop owing to proximity of IT companies and the ring road just passing close to the station and well connected by buses to major parts. It also forms the 1st stop for majority of trains leaving Yesvantpur towards Jolarpettai.,"(13.000534, 77.674016)"
5,,,,,,12.918047,77.48431,,,Kengeri railway station ,Get in_By train,wikivoyage,red,,,,Kengeri , ,"An important stop owing to proximity of residential areas in the proximity. Its a major stop for all train coming from Mysore side. Kengeri Bus stand on Mysore road is 5 min walk from Railway station, having access to major Ring Road services of 401K (Yelahanka via Vijayanagar), 401M (Yeshvantapur via Ring Road), 502F (Peenya), 375 (Banashankari via Uttarahalli), 378 (Electronic City via Uttarahalli) and 222A/226N towards Majestic and Market. Global Tech Park is about {{km","(12.918047, 77.48431)"
0,,,,,,12.976792,77.572597,,,Kempegowda Bus Station ,Get in_By bus,wikivoyage,red,,,,"Gandhi Nagar, City Bus Rd ", ,"One of the largest bus stands in the city, this bus stand caters to major buses on Karnataka (except Mysore Road side buses), Andhra Pradesh, Telangana, Maharashtra and Goa routes. it is also the largest intersecting point for [http://www.bmtcinfo.com/ Bangalore Metropolitan Transport Corporation] (BMTC), which maintains bus services within Bangalore. The bus stand is opposite the City railway station.","(12.976792, 77.572597)"
1,,,,,,12.95371,77.543661,,,Mysore Road Satellite Bus Stand ,Get in_By bus,wikivoyage,red,,,,"Bapuji Nagar, Mysore Rd ", ,"One of the important bus stands of Bangalore, aimed at decongesting Majestic Bus Stand, this bus stand caters to all ordinary and Luxury services towards Mysore, as well as Interstate ordinary and Luxury services to Kerala, via Mysore, operated by Karnataka and Kerala state governments. Ordinary and Deluxe uses bound to Ooty, Coimbatore via Mysore/Kollegal also start from this place. All ordinary services operated by Tamil Nadu State Road Transport Corporation to Vellore, Tiruvannamalai, Salem, Vriddachalam, Kanchipuram, Coimbatore and Trichy use this Bus stand for terminating their bus services.","(12.95371, 77.543661)"
2,,,,,,12.9642,77.57773,,,City Market ,Get in_By bus,wikivoyage,red,,,, , ,Around {{km,"(12.9642, 77.57773)"
3,,,,,,12.95475,77.59198,,,Shantinagar ,Get in_By bus,wikivoyage,red,,,,K.H.Road , ,"One of the important bus stands of Bangalore, aimed at decongesting Majestic bus stand, this bus stand caters to all Luxury services towards Tamil Nadu operated by KSRTC as well as SETC of Tamil Nadu. Some Kerala State Transport Corporation buses running via Salem to Kerala go through this terminal.","(12.95475, 77.59198)"
4,,,,,,12.98343,77.60308,,,Shivajinagar ,Get in_By bus,wikivoyage,red,,,, , ,"In the north. It is neatly organised, and there is an inquiry window to find out about buses. If you are changing buses, you may have to get down on the street and walk into the bus stand to catch your next bus. You can find a large map on display here too, which you can use to find the bus number you need to take if you know the area you are going to. Route maps are also sold on the platforms.","(12.98343, 77.60308)"
0,,,,,,0.0,0.0,,,--,Get in_By bus_Bus companies,wikivoyage,red,,,,,,,"(0, 0)"
1,,,,,,0.0,0.0,,,--,Get in_By bus_Bus companies,wikivoyage,red,,,,,,,"(0, 0)"
2,,,,,,0.0,0.0,,,--,Get in_By bus_Bus companies,wikivoyage,red,,,,,,,"(0, 0)"
3,,,,,,0.0,0.0,,,--,Get in_By bus_Bus companies,wikivoyage,red,,,,,,,"(0, 0)"
4,,,,,,0.0,0.0,,,--,Get in_By bus_Bus companies,wikivoyage,red,,,,,,,"(0, 0)"
0,,,,,,0.0,0.0,,,--,Get in_By car,wikivoyage,red,,,,,,,"(0, 0)"
0,,,,,,0.0,0.0,,,--,Get around,wikivoyage,red,,,,,,,"(0, 0)"
1,,,,,,0.0,0.0,,,--,Get around,wikivoyage,red,,,,,,,"(0, 0)"
0,,,,,,0.0,0.0,,,--,Get around_By metro,wikivoyage,red,,,,,,,"(0, 0)"
1,,,,,,0.0,0.0,,,--,Get around_By metro,wikivoyage,red,,,,,,,"(0, 0)"
0,,,,,,0.0,0.0,,,--,Get around_By bus,wikivoyage,red,,,,,,,"(0, 0)"
0,,,,,,0.0,0.0,,,--,Get around_By train,wikivoyage,red,,,,,,,"(0, 0)"
0,,,,,,0.0,0.0,,,--,Get around_By auto-rickshaw,wikivoyage,red,,,,,,,"(0, 0)"
0,,,,,,0.0,0.0,,,--,Get around_By car taxi or bike taxi,wikivoyage,red,,,,,,,"(0, 0)"
0,,,,,,0.0,0.0,,,--,Get around_By private car,wikivoyage,red,,,,,,,"(0, 0)"
0,,,,,,0.0,0.0,,,--,Get around_By bicycle,wikivoyage,red,,,,,,,"(0, 0)"
0,,,,,,0.0,0.0,,,--,Get around_By rental scooter,wikivoyage,red,,,,,,,"(0, 0)"
0,,,,,,12.978056,77.5925,,,Attara Kacheri ,See,wikivoyage,red,,,,Dr Ambedkar Rd ,http://hck.gov.in/ ,"A two-storey neoclassical red-painted stone and brick building, hosting the High Court of Karnataka. It was previously a secretariat of eighteen departments, built under the reign of king Devaraja Wadiyar II in 1701. The main structure of the building is surrounded on all sides by porticoes and verandahs. The entire building is surfaced with plaster and painted with red ochre.","(12.978056, 77.5925)"
1,,,,,,12.9747,77.5958,,,Government Museum ,See,wikivoyage,red,,,,Kasturba Rd , ,"Established in 1865, the museum is flanked by the Visvesvaraya Industrial & Technological Museum and the Venkatappa Art Gallery. It is an archaeological museum with a rare collection of archaeological and geological artefacts, including old jewellery, sculpture, coins and inscriptions. The museum is also home to the Halmidi inscription, the earliest writing in Kannada (450 CE).","(12.9747, 77.5958)"
2,,,,,,12.974549,77.596832,,,Museum of Art & Photography ,See,wikivoyage,red,,,,"22, Kasturba Rd ",https://map-india.org/ ,"This museum presents 4 exhibitions (2 free and 2 paid, ₹150) and contains a café, restaurant and library over 5 stories. It's well worth a visit and takes about 2 hours.","(12.974549, 77.596832)"
3,,,,,,12.9746,77.5907,,,Seshadari Iyer Memorial ,See,wikivoyage,red,,,,Kasturba Rd , ,"A distinctive red sandstone building, hosting the State Central Library.","(12.9746, 77.5907)"
4,,,,,,12.974236,77.595302,,,Venkatappa Art Gallery ,See,wikivoyage,red,,,,Kasturba Rd , ,,"(12.974236, 77.595302)"
5,,,,,,12.979693,77.590658,,,Vidhana Soudha ,See,wikivoyage,red,,,,Dr Ambedkar Rd , ,"This granite building houses the Legislative Assembly of Karnataka. It was built during the tenure of K. Hanumanthaiya, Chief Minister of Mysore State (1951–1956). A marvel of neo-Dravidian architecture, and one of the most imposing buildings in India. One of the interesting features of this building are the grand stairs in its front. The steps of the grand stairs are {{m","(12.979693, 77.590658)"
6,,,,,,12.978318,77.589297,,,Vikasa Soudha ,See,wikivoyage,red,,,, , ,"Located next to Vidhana Soudha, built in the same classic style. It was inaugurated in 2005. General public and tourists are not allowed to enter the premises. It can only be viewed from outside the boundary walls.","(12.978318, 77.589297)"
7,,,,,,12.982425,77.595785,,,Visvesvaraya Centre ,See,wikivoyage,red,,,, , ,"A government office complex, built on the site of the house of Sir M. Visvesvaraya after his death. Initially constructed for the Life Insurance Corporation (LIC), it was later bought by the state government to house government offices. The brutalist architecture of this high-rise building at Cubbon Park area stands in sharp contrast to the neoclassical architecture of Vidhana Soudha, Attara Kacheri and the General Post Office. The general public is not allowed into the premises, unless they have an appointment at one of the offices.","(12.982425, 77.595785)"
8,,,,,,12.9751,77.5964,,,Visvesvaraya Industrial & Technological Museum ,See,wikivoyage,red,,,, ,https://www.vismuseum.gov.in/ ,"Contains many fun learning activities and exhibitions that can be enjoyed by adults and children. Most exhibits are based on simple science, but some have industrial applications. For general visitors entry fee is ₹40. Some groups receive discounts (organised school groups, BPL Category when showing valid BPL card, etc). Entry is free for military and police personnel in uniform, the physically challenged, and children below 5 years of age. There is also a 3D show costing an extra ₹25 (for general public).","(12.9751, 77.5964)"
0,,,,,,12.978056,77.5925,,,Attara Kacheri ,See_Cubbon Park area,wikivoyage,red,,,,Dr Ambedkar Rd ,http://hck.gov.in/ ,"A two-storey neoclassical red-painted stone and brick building, hosting the High Court of Karnataka. It was previously a secretariat of eighteen departments, built under the reign of king Devaraja Wadiyar II in 1701. The main structure of the building is surrounded on all sides by porticoes and verandahs. The entire building is surfaced with plaster and painted with red ochre.","(12.978056, 77.5925)"
1,,,,,,12.9747,77.5958,,,Government Museum ,See_Cubbon Park area,wikivoyage,red,,,,Kasturba Rd , ,"Established in 1865, the museum is flanked by the Visvesvaraya Industrial & Technological Museum and the Venkatappa Art Gallery. It is an archaeological museum with a rare collection of archaeological and geological artefacts, including old jewellery, sculpture, coins and inscriptions. The museum is also home to the Halmidi inscription, the earliest writing in Kannada (450 CE).","(12.9747, 77.5958)"
2,,,,,,12.974549,77.596832,,,Museum of Art & Photography ,See_Cubbon Park area,wikivoyage,red,,,,"22, Kasturba Rd ",https://map-india.org/ ,"This museum presents 4 exhibitions (2 free and 2 paid, ₹150) and contains a café, restaurant and library over 5 stories. It's well worth a visit and takes about 2 hours.","(12.974549, 77.596832)"
3,,,,,,12.9746,77.5907,,,Seshadari Iyer Memorial ,See_Cubbon Park area,wikivoyage,red,,,,Kasturba Rd , ,"A distinctive red sandstone building, hosting the State Central Library.","(12.9746, 77.5907)"
4,,,,,,12.974236,77.595302,,,Venkatappa Art Gallery ,See_Cubbon Park area,wikivoyage,red,,,,Kasturba Rd , ,,"(12.974236, 77.595302)"
5,,,,,,12.979693,77.590658,,,Vidhana Soudha ,See_Cubbon Park area,wikivoyage,red,,,,Dr Ambedkar Rd , ,"This granite building houses the Legislative Assembly of Karnataka. It was built during the tenure of K. Hanumanthaiya, Chief Minister of Mysore State (1951–1956). A marvel of neo-Dravidian architecture, and one of the most imposing buildings in India. One of the interesting features of this building are the grand stairs in its front. The steps of the grand stairs are {{m","(12.979693, 77.590658)"
6,,,,,,12.978318,77.589297,,,Vikasa Soudha ,See_Cubbon Park area,wikivoyage,red,,,, , ,"Located next to Vidhana Soudha, built in the same classic style. It was inaugurated in 2005. General public and tourists are not allowed to enter the premises. It can only be viewed from outside the boundary walls.","(12.978318, 77.589297)"
7,,,,,,12.982425,77.595785,,,Visvesvaraya Centre ,See_Cubbon Park area,wikivoyage,red,,,, , ,"A government office complex, built on the site of the house of Sir M. Visvesvaraya after his death. Initially constructed for the Life Insurance Corporation (LIC), it was later bought by the state government to house government offices. The brutalist architecture of this high-rise building at Cubbon Park area stands in sharp contrast to the neoclassical architecture of Vidhana Soudha, Attara Kacheri and the General Post Office. The general public is not allowed into the premises, unless they have an appointment at one of the offices.","(12.982425, 77.595785)"
8,,,,,,12.9751,77.5964,,,Visvesvaraya Industrial & Technological Museum ,See_Cubbon Park area,wikivoyage,red,,,, ,https://www.vismuseum.gov.in/ ,"Contains many fun learning activities and exhibitions that can be enjoyed by adults and children. Most exhibits are based on simple science, but some have industrial applications. For general visitors entry fee is ₹40. Some groups receive discounts (organised school groups, BPL Category when showing valid BPL card, etc). Entry is free for military and police personnel in uniform, the physically challenged, and children below 5 years of age. There is also a 3D show costing an extra ₹25 (for general public).","(12.9751, 77.5964)"
0,,,,,,12.962875,77.575956,,,Bangalore Fort ,See_Forts and palaces,wikivoyage,red,,,, , ,"Built in 1537. A small part with massive granite walls, big gates, a dungeon and a small Ganesha temple is still intact. Check out the stone carving high up on the wall to your left after entering the massive wooden door.","(12.962875, 77.575956)"
1,,,,,,12.998529,77.592103,,,Bangalore Palace ,See_Forts and palaces,wikivoyage,red,,,,"Palace Rd, Vasanth Nagar ", ,Built by the Maharajas of Mysore. For many years the building was neglected as a tourist attraction but is now open to the public. This is a run-down building with paint peeling on the interior and is generally a tourist trap to be avoided.,"(12.998529, 77.592103)"
2,,,,,,12.959494,77.573572,,,Tipu Sultan's Summer Palace ,See_Forts and palaces,wikivoyage,red,,,,Albert Victor Rd , ,"Dating to about 1790, it was the summer retreat for Tipu Sultan. The two-storey structure is made mostly out of wood with finely embellished balconies, pillars and arches. It contains a small museum with information on Tipu Sultan.","(12.959494, 77.573572)"
0,,,,,,12.988117,77.579826,,,Gandhi Bhavan ,See_Museums and art galleries,wikivoyage,red,,,,Kumara Park E , ,"The museum consists of a gallery with rare photographs of Mahatma Gandhi and letters written by him, a library and an auditorium. It serves as a venue for meetings organised on Gandhian values in Bangalore.","(12.988117, 77.579826)"
1,,,,,,12.95522,77.68077,,,HAL Aerospace Museum ,See_Museums and art galleries,wikivoyage,red,,,,Airport-Varthur Rd , ,"India's first aerospace museum. Run by Hindustan Aeronautics Limited (HAL), a large aerospace company. It showcases the growth of the Indian aviation industry and HAL for six decades. The museum houses displays of various aircraft and helicopters, aircraft engine models, flight simulators, a mock Air Traffic Control Tower and exhibit of Indian aviation history.","(12.95522, 77.68077)"
2,,,,,,12.89177,77.58372,,,Indian Music Experience Museum ,See_Museums and art galleries,wikivoyage,red,,,,"Brigade Millenium Ave, 7th Phase, JP Nagar ",https://www.indianmusicexperience.org/ ,The only interactive music museum in India with exhibits on traditional and contemporary Indian music. The museum also hosts a learning centre to learn music.,"(12.89177, 77.58372)"
3,,,,,,12.989167,77.578367,,,Karnataka Chitrakala Parishath ,See_Museums and art galleries,wikivoyage,red,,,, ,http://www.karnatakachitrakalaparishath.com/index.php#gallery ,"a visual art complex with 18 galleries, 13 of which carry a permanent collection of paintings, sculptures and folk art. The folk art collection showcases Mysore paintings and leather puppets.","(12.989167, 77.578367)"
4,,,,,,12.974092,77.610754,,,Kempegowda Museum ,See_Museums and art galleries,wikivoyage,red,,,, , ,"A government museum dedicated to Bangalore's founder Kempe Gowda. It is housed in the Mayo Hall, which was built in memory of Lord Mayo, the 4th Viceroy of India. This two-storey building is known for its ornate furniture and architecture. It is adorned by chandeliers, Greek cornices, Tuscan columns, stone arches, wooden floors and beautiful furnishings. The building itself offers a panoramic view of the city's Parade Grounds and Ulsoor Lake on one side, and the Bangalore Race Course and Brigade Grounds on the south.","(12.974092, 77.610754)"
5,,,,,,12.989705,77.58815,,,National Gallery of Modern Art ,See_Museums and art galleries,wikivoyage,red,,,,"49, Manikyavelu Mansion, Palace Rd ",http://ngmaindia.gov.in/ngma_bangaluru.asp ,"The National Gallery of Modern Art houses an auditorium, café, shop and exhibitions of modern and contemporary art in a beautiful building. The gallery organises and hosts talks on art and culture by speakers, seminars, film screenings as well as workshops and guided walks throughout the year.","(12.989705, 77.58815)"
6,,,,,,12.985521,77.590458,,,National Military Memorial ,See_Museums and art galleries,wikivoyage,red,,,, , ,"A memorial-cum-museum dedicated to the personnel and families of martyrs who have died in the service of the nation. The collection in the museum include mockups of missiles like AKASH, Prithvi and BrahMos and space launch vehicles like PSLV.","(12.985521, 77.590458)"
7,,,,,,12.940639,77.598778,,,NIMHANS Brain Museum ,See_Museums and art galleries,wikivoyage,red,,,,Hosur Rd ,http://www.nimhans.ac.in/neurobiology-research-centre-nrc/ ,A rather unusual museum with a collection of several different human brains.,"(12.940639, 77.598778)"
0,,,,,,12.825845,77.508759,,,Art of Living Temple ,See_Places of worship,wikivoyage,red,,,,Double Rd ,http://www.artofliving.org/ ,The ashrama is the international headquarters of the Art of Living Foundation. The ashram is spread over 65 acres and was established in 1986. They conduct frequent yoga and Ayurveda programs.,"(12.825845, 77.508759)"
1,,,,,,13.0136,77.6521,,,Banaswadi Hanuman Temple ,See_Places of worship,wikivoyage,red,,,, , ,"Constructed in Dravidian style, attracts a large number of devotees, especially on weekends. It has smaller temples dedicated to Lord Rama, Shiva and Ganapathi within the walled compound.","(13.0136, 77.6521)"
2,,,,,,12.96229,77.63522,,,Chokkanathaswamy Temple ,See_Places of worship,wikivoyage,red,,,, , ,A 10th-century Chola temple with inscriptions in Kannada and Tamil.,"(12.96229, 77.63522)"
3,,,,,,12.942894,77.568208,,,Dodda Ganeshana Gudi ,See_Places of worship,wikivoyage,red,,,,"Bull Temple Rd, NR Colony, Basavanagudi ", ,"A typical Dravidian-style temple, famous for its mammoth bull statue that was carved from a single boulder. Legend has it that the temple was built to appease a marauding bull that stole local crops and that the offering was effective with the bull subsequently leaving the area. Since then, local farmers have held an annual festival to express their gratitude.","(12.942894, 77.568208)"
4,,,,,,12.96574,77.58285,,,Dharmaraya Swamy Draupadi Devi Temple ,See_Places of worship,wikivoyage,red,,,, , ,"One of the oldest temples of Bangalore and also the smallest, the Temple is in existence since the times of Kempe Gowda. It is on S.P. Road close to Corporation Circle, behind the LIC building. This temple is famous for the Annual Karaga Festival held every summer. The Presiding Deity is Dharmaraya (Yudishtra) & Consort Draupadi making it a unique one of its kind.","(12.96574, 77.58285)"
5,,,,,,12.94289,77.56823,,,Dodda Ganapathi ,See_Places of worship,wikivoyage,red,,,, , ,"One of the oldest temples in Bangalore, it is adjacent to the Bull Temple. The temple is famous for the huge monolith structure of Lord Ganesha, who was worshipped by the villagers to save them from the Bull that was damaging their crops in the area. The Bull Temple is a few metres away from this temple.","(12.94289, 77.56823)"
6,,,,,,12.94829,77.56322,,,Gavi Gangadeshwara Cave Temple ,See_Places of worship,wikivoyage,red,,,,"Gavipuram, Kempegowda Nagar ", ,"Built by Kempe Gowda, this temple with four remarkable monolithic pillars is dedicated to Lord Shiva. The temple also has a rare idol of ''Agni'' god of fire. The annual festival is on ''Makara Sankranti'' and thousands of devotees flock to see the sun's rays fall on the ''Shivlinga''.","(12.94829, 77.56322)"
7,,,,,,13.009444,77.550833,,,ISKCON Hare Krishna Temple ,See_Places of worship,wikivoyage,red,,,,"Hare Krishna Hill, Chord Rd ",https://www.iskconbangalore.org ,"Temple built on a hillock in Rajajinagar atop scenic surroundings, is a perfect blend of modern technology and spiritual harmony. The huge cultural complex was built to promote Vedic culture and spiritual learning and abounds with shops selling devotional items and souvenirs. The annual Krishna and Balarama ''Rath Yatra'' is attended by thousands.","(13.009444, 77.550833)"
8,,,,,,12.97817,77.58069,,,Maha Bodhi Society Temple ,See_Places of worship,wikivoyage,red,,,,"No. 14, Kalidas Road, Gandhi Nagar ", ,"A relatively new structure, with the main shrine built as a replica of the historic stupa at [[Bodh Gaya]]. The temple grounds are very peaceful, and visitors are welcome to stroll around. In addition, the temple houses an excellent library of books on Buddhism, many of which are in English.","(12.97817, 77.58069)"
9,,,,,,0.0,0.0,,,"Maruthi Mandir, Mahakalshmi Layout ",See_Places of worship,wikivoyage,red,,,, , ,"A Hanuman Temple is opposite, in the gate of Mahalakshmi Layout. This is a rock hill with huge idols of Hanuman and Mahalakshmi temples. The annual festival of Hanumad Jayanthi during December is very attractive.","(0, 0)"
10,,,,,,12.87495,77.59435,,,Meenakshi Sundareshwarar Temple ,See_Places of worship,wikivoyage,red,,,,Bannerghatta Rd , ,"Beautiful, spacious temple devoted to Sri Meenakshi Amma. Built in ancient style with stone structures, this place is very cool and mind refreshing place to see. You will feel that you are in a temple at Tamilnadu, when in this temple.","(12.87495, 77.59435)"
11,,,,,,12.91465,77.42299,,,Mukti Naga Temple ,See_Places of worship,wikivoyage,red,,,, ,http://www.karnatakavision.com/mukti-naga-temple.php ,"Contains the world's largest monolithic statue of Lord Naaga, about 16 feet tall and weighing 36 tons. The Mukti Naga Temple, which is run by Shri Subrahmanya Seva Trust, is in a serene ambience of Ramohalli, a village on the outskirts of the city.","(12.91465, 77.42299)"
12,,,,,,12.91482,77.5933,,,Ragi Gudda ,See_Places of worship,wikivoyage,red,,,,Jayanagar 9th block , ,"This is a famous Hanuman temple abode. The temple is on a mammoth rocky hill, and has very attractive chain of temples like Spathika Shiva, Ganesha and scenery within the premises. This is a very crowd attracting place during the period of Hanumad Jayanthi in December. You get mahaprasadam meals on Saturday noon-1PM.","(12.91482, 77.5933)"
13,,,,,,12.9778793,77.6246697,,,Someshwara Temple ,See_Places of worship,wikivoyage,red,,,,Halasuru , ,"Temple dedicated to Lord Shiva, is one of the oldest temples of the City. The inner sanctum santorum is said to have been built in the 8th century by the Cholas who ruled this place, the outer Praharam during the Hoysalas of the 11th century while the front hall construction and the Gopuram during the Vijayanagar Empire of the 15th century. The structure resembles the various changes the temple has gone through during the period with major additions and renovations done for preserving the temple.","(12.9778793, 77.6246697)"
14,,,,,,12.9581,77.65664,,,Shiva Temple ,See_Places of worship,wikivoyage,red,,,,Old Airport Rd ,http://shivmandir.org.in ,"This temple has a massive monolith of Lord Shiva in the middle of an artificial pool. There is a cave-like walkthrough behind the statue. It is extremely crowded on the festival of Maha Shivaratri. One can't see or feel any kind of Bhakti in this temple, because at each move inside the temple there will be a person collecting money which creates such a disturbance for the concentration on Bhakti. On each step the devotees will be concentrating on the money boxes (Hundi in Kannada), and people standing to ask money as offerings.","(12.9581, 77.65664)"
15,,,,,,0.0,0.0,,,Shree Guruvayurappan Temple ,See_Places of worship,wikivoyage,red,,,, , ,A Kerala style temple located in Kanakapura Road. A small and nice temple which gives a great vibration of peace and tranquility. Only traditional attire is allowed to enter the sanctum (dhotis for men and sarees for women).,"(0, 0)"
16,,,,,,0.0,0.0,,,Sri Raja Rajeshwari Temple ,See_Places of worship,wikivoyage,red,,,, , ,"A famous temple dedicated to Goddess Parvathi (RajaRajeshwari). It was built by a renowned spiritual guru, Sri Sri Sri Tiruchi Mahaswaigal. Built in the ancient style with stones, the temple is very spacious. One can feel the peace and satisfaction when visited. Week ends are very crowded.","(0, 0)"
0,,,,,,12.825845,77.508759,,,Art of Living Temple ,See_Places of worship_Temples,wikivoyage,red,,,,Double Rd ,http://www.artofliving.org/ ,The ashrama is the international headquarters of the Art of Living Foundation. The ashram is spread over 65 acres and was established in 1986. They conduct frequent yoga and Ayurveda programs.,"(12.825845, 77.508759)"
1,,,,,,13.0136,77.6521,,,Banaswadi Hanuman Temple ,See_Places of worship_Temples,wikivoyage,red,,,, , ,"Constructed in Dravidian style, attracts a large number of devotees, especially on weekends. It has smaller temples dedicated to Lord Rama, Shiva and Ganapathi within the walled compound.","(13.0136, 77.6521)"
2,,,,,,12.96229,77.63522,,,Chokkanathaswamy Temple ,See_Places of worship_Temples,wikivoyage,red,,,, , ,A 10th-century Chola temple with inscriptions in Kannada and Tamil.,"(12.96229, 77.63522)"
3,,,,,,12.942894,77.568208,,,Dodda Ganeshana Gudi ,See_Places of worship_Temples,wikivoyage,red,,,,"Bull Temple Rd, NR Colony, Basavanagudi ", ,"A typical Dravidian-style temple, famous for its mammoth bull statue that was carved from a single boulder. Legend has it that the temple was built to appease a marauding bull that stole local crops and that the offering was effective with the bull subsequently leaving the area. Since then, local farmers have held an annual festival to express their gratitude.","(12.942894, 77.568208)"
4,,,,,,12.96574,77.58285,,,Dharmaraya Swamy Draupadi Devi Temple ,See_Places of worship_Temples,wikivoyage,red,,,, , ,"One of the oldest temples of Bangalore and also the smallest, the Temple is in existence since the times of Kempe Gowda. It is on S.P. Road close to Corporation Circle, behind the LIC building. This temple is famous for the Annual Karaga Festival held every summer. The Presiding Deity is Dharmaraya (Yudishtra) & Consort Draupadi making it a unique one of its kind.","(12.96574, 77.58285)"
5,,,,,,12.94289,77.56823,,,Dodda Ganapathi ,See_Places of worship_Temples,wikivoyage,red,,,, , ,"One of the oldest temples in Bangalore, it is adjacent to the Bull Temple. The temple is famous for the huge monolith structure of Lord Ganesha, who was worshipped by the villagers to save them from the Bull that was damaging their crops in the area. The Bull Temple is a few metres away from this temple.","(12.94289, 77.56823)"
6,,,,,,12.94829,77.56322,,,Gavi Gangadeshwara Cave Temple ,See_Places of worship_Temples,wikivoyage,red,,,,"Gavipuram, Kempegowda Nagar ", ,"Built by Kempe Gowda, this temple with four remarkable monolithic pillars is dedicated to Lord Shiva. The temple also has a rare idol of ''Agni'' god of fire. The annual festival is on ''Makara Sankranti'' and thousands of devotees flock to see the sun's rays fall on the ''Shivlinga''.","(12.94829, 77.56322)"
7,,,,,,13.009444,77.550833,,,ISKCON Hare Krishna Temple ,See_Places of worship_Temples,wikivoyage,red,,,,"Hare Krishna Hill, Chord Rd ",https://www.iskconbangalore.org ,"Temple built on a hillock in Rajajinagar atop scenic surroundings, is a perfect blend of modern technology and spiritual harmony. The huge cultural complex was built to promote Vedic culture and spiritual learning and abounds with shops selling devotional items and souvenirs. The annual Krishna and Balarama ''Rath Yatra'' is attended by thousands.","(13.009444, 77.550833)"
8,,,,,,12.97817,77.58069,,,Maha Bodhi Society Temple ,See_Places of worship_Temples,wikivoyage,red,,,,"No. 14, Kalidas Road, Gandhi Nagar ", ,"A relatively new structure, with the main shrine built as a replica of the historic stupa at [[Bodh Gaya]]. The temple grounds are very peaceful, and visitors are welcome to stroll around. In addition, the temple houses an excellent library of books on Buddhism, many of which are in English.","(12.97817, 77.58069)"
9,,,,,,0.0,0.0,,,"Maruthi Mandir, Mahakalshmi Layout ",See_Places of worship_Temples,wikivoyage,red,,,, , ,"A Hanuman Temple is opposite, in the gate of Mahalakshmi Layout. This is a rock hill with huge idols of Hanuman and Mahalakshmi temples. The annual festival of Hanumad Jayanthi during December is very attractive.","(0, 0)"
10,,,,,,12.87495,77.59435,,,Meenakshi Sundareshwarar Temple ,See_Places of worship_Temples,wikivoyage,red,,,,Bannerghatta Rd , ,"Beautiful, spacious temple devoted to Sri Meenakshi Amma. Built in ancient style with stone structures, this place is very cool and mind refreshing place to see. You will feel that you are in a temple at Tamilnadu, when in this temple.","(12.87495, 77.59435)"
11,,,,,,12.91465,77.42299,,,Mukti Naga Temple ,See_Places of worship_Temples,wikivoyage,red,,,, ,http://www.karnatakavision.com/mukti-naga-temple.php ,"Contains the world's largest monolithic statue of Lord Naaga, about 16 feet tall and weighing 36 tons. The Mukti Naga Temple, which is run by Shri Subrahmanya Seva Trust, is in a serene ambience of Ramohalli, a village on the outskirts of the city.","(12.91465, 77.42299)"
12,,,,,,12.91482,77.5933,,,Ragi Gudda ,See_Places of worship_Temples,wikivoyage,red,,,,Jayanagar 9th block , ,"This is a famous Hanuman temple abode. The temple is on a mammoth rocky hill, and has very attractive chain of temples like Spathika Shiva, Ganesha and scenery within the premises. This is a very crowd attracting place during the period of Hanumad Jayanthi in December. You get mahaprasadam meals on Saturday noon-1PM.","(12.91482, 77.5933)"
13,,,,,,12.9778793,77.6246697,,,Someshwara Temple ,See_Places of worship_Temples,wikivoyage,red,,,,Halasuru , ,"Temple dedicated to Lord Shiva, is one of the oldest temples of the City. The inner sanctum santorum is said to have been built in the 8th century by the Cholas who ruled this place, the outer Praharam during the Hoysalas of the 11th century while the front hall construction and the Gopuram during the Vijayanagar Empire of the 15th century. The structure resembles the various changes the temple has gone through during the period with major additions and renovations done for preserving the temple.","(12.9778793, 77.6246697)"
14,,,,,,12.9581,77.65664,,,Shiva Temple ,See_Places of worship_Temples,wikivoyage,red,,,,Old Airport Rd ,http://shivmandir.org.in ,"This temple has a massive monolith of Lord Shiva in the middle of an artificial pool. There is a cave-like walkthrough behind the statue. It is extremely crowded on the festival of Maha Shivaratri. One can't see or feel any kind of Bhakti in this temple, because at each move inside the temple there will be a person collecting money which creates such a disturbance for the concentration on Bhakti. On each step the devotees will be concentrating on the money boxes (Hundi in Kannada), and people standing to ask money as offerings.","(12.9581, 77.65664)"
15,,,,,,0.0,0.0,,,Shree Guruvayurappan Temple ,See_Places of worship_Temples,wikivoyage,red,,,, , ,A Kerala style temple located in Kanakapura Road. A small and nice temple which gives a great vibration of peace and tranquility. Only traditional attire is allowed to enter the sanctum (dhotis for men and sarees for women).,"(0, 0)"
16,,,,,,0.0,0.0,,,Sri Raja Rajeshwari Temple ,See_Places of worship_Temples,wikivoyage,red,,,, , ,"A famous temple dedicated to Goddess Parvathi (RajaRajeshwari). It was built by a renowned spiritual guru, Sri Sri Sri Tiruchi Mahaswaigal. Built in the ancient style with stones, the temple is very spacious. One can feel the peace and satisfaction when visited. Week ends are very crowded.","(0, 0)"
0,,,,,,12.972118,77.620622,,,Holy Trinity Church ,See_Places of worship_Churches,wikivoyage,red,,,, , ,"This church is a major landmark in Bangalore. It was built in 1851, for the British Regiment stationed in Bangalore. Built-in the English Renaissance style, the church can accommodate 700 people and is regarded as the largest ""military"" church in southern India. It has a congregation of over 450 families.","(12.972118, 77.620622)"
1,,,,,,12.984417,77.60425,,,St. Mary's Basilica ,See_Places of worship_Churches,wikivoyage,red,,,, ,http://www.stmarysbasilica.in/ ,"The oldest church in Bangalore, and the only church in the state which has been elevated to the status of a minor basilica. It is famous for the festivities held during the St. Mary's Feast in the month of September each year, an event that attracts devotees from in and around Bangalore. The basilica is built in Gothic style with arches, ornamental motifs and stained glass windows. Multiple columns and tall spires of the basilica can be seen from quite a distance. The stained glass windows were removed during World War II and were subsequently restored in 1947.","(12.984417, 77.60425)"
0,,,,,,12.95,77.59,,,Lalbagh Botanical Garden ,See_Botanical and zoological gardens,wikivoyage,red,,,, , ,"Built during the reigns of Hyder Ali and Tipu Sultan, the botanical garden is home to numerous wild species of birds and other wildlife. The garden also has a lake adjoining a large rock is home to some water birds. Flower shows are conducted every year during the week of Republic Day (26 January) and Independence Day (15 August) to educate people about the variety of flora and develop public interest in plant conservation and cultivation.","(12.95, 77.59)"
1,,,,,,13.0822,77.57627,,,Mahatma Gandhi Botanical Garden ,See_Botanical and zoological gardens,wikivoyage,red,,,, , ,,"(13.0822, 77.57627)"
0,,,,,,12.9645826,77.5858924,,,Bangalore Town Hall ,Do,wikivoyage,red,,,,112 JC Road , ,A neoclassical building. The structure features a flight of steps leading to the entrance porch resting on Tuscan columns with identical columns extending on either sides. The auditorium has two floors with a total capacity of 810 seats.,"(12.9645826, 77.5858924)"
1,,,,,,12.98486,77.58954,,,Jawaharlal Nehru Planetarium ,Do,wikivoyage,red,,,,"Bangalore Association for Science Education, Sri T. Choudaiah Road, High Grounds ",http://www.taralaya.org/ ,"A very good planetarium for adults and children alike. Shows are offered in Kannada and English. Each show is about 30 minutes long. There are about 200 seats available for each show. A ticket can be used only for the show mentioned on the ticket, and is non-refundable if you miss that show.","(12.98486, 77.58954)"
0,,,,,,12.9645826,77.5858924,,,Bangalore Town Hall ,Do_Indoor activities,wikivoyage,red,,,,112 JC Road , ,A neoclassical building. The structure features a flight of steps leading to the entrance porch resting on Tuscan columns with identical columns extending on either sides. The auditorium has two floors with a total capacity of 810 seats.,"(12.9645826, 77.5858924)"
1,,,,,,12.98486,77.58954,,,Jawaharlal Nehru Planetarium ,Do_Indoor activities,wikivoyage,red,,,,"Bangalore Association for Science Education, Sri T. Choudaiah Road, High Grounds ",http://www.taralaya.org/ ,"A very good planetarium for adults and children alike. Shows are offered in Kannada and English. Each show is about 30 minutes long. There are about 200 seats available for each show. A ticket can be used only for the show mentioned on the ticket, and is non-refundable if you miss that show.","(12.98486, 77.58954)"
0,,,,,,0.0,0.0,,,--,Do_Outdoor activities and sports,wikivoyage,red,,,,,,,"(0, 0)"
1,,,,,,0.0,0.0,,,--,Do_Outdoor activities and sports,wikivoyage,red,,,,,,,"(0, 0)"
2,,,,,,0.0,0.0,,,--,Do_Outdoor activities and sports,wikivoyage,red,,,,,,,"(0, 0)"
3,,,,,,0.0,0.0,,,Cycling ,Do_Outdoor activities and sports,wikivoyage,red,,,, ,http://www.artofbicycletrips.com ,"Art of Bicycle Trips organizes bicycle tours in and around Bangalore. The tours combine cycling with Indian art, culture and heritage.","(0, 0)"
4,,,,,,0.0,0.0,,,--,Do_Outdoor activities and sports,wikivoyage,red,,,,,,,"(0, 0)"
5,,,,,,0.0,0.0,,,--,Do_Outdoor activities and sports,wikivoyage,red,,,,,,,"(0, 0)"
6,,,,,,0.0,0.0,,,Sports clubs ,Do_Outdoor activities and sports,wikivoyage,red,,,, , ,"The Koramangala Club in Koramangala, and the Swimming club at the National Games Village (NGV), have facilities such as swimming pools and tennis courts.","(0, 0)"
7,,,,,,12.971062,77.643381,,,Trash Trail ,Do_Outdoor activities and sports,wikivoyage,red,,,,Daily Dump ,http://dailydump.org/learn/ ,"On this journey through the story of waste, you will meet people who silently clean up and transform all the stuff we throw away. In the process, you will visit places you haven't imagined existed!","(12.971062, 77.643381)"
8,,,,,,0.0,0.0,,,Ultimate Frisbee ,Do_Outdoor activities and sports,wikivoyage,red,,,, ,http://www.learningtofly.in ,"Although in a nascent stage, Ultimate Frisbee games are held on Tu Th Sa mornings starting 6:30AM. The teams comprise of players of all skill levels.","(0, 0)"
0,,,,,,12.9788,77.5996,,,Chinnaswamy Stadium ,Do_Parks and stadiums,wikivoyage,red,,,,Mahatma Gandhi Rd , ,"With a capacity of 40,000, this is the home of the Indian Premier League (IPL) team Royal Challengers Bangalore (RCB), which has a large and loud following. IPL season typically is March to May every year, matches are played in the evenings and last around 3 hours. Scour the daily newspapers for ticket information - tickets sell out a week before.","(12.9788, 77.5996)"
1,,,,,,12.975,77.593333,,,Cubbon Park ,Do_Parks and stadiums,wikivoyage,red,,,, ,http://www.horticulture.kar.nic.in/cubbon.htm ,"A nice forested area in the city centre. The entrance from Queen's Statue forms the tourist attraction owing to the presence of the Government Aquarium and Bal Bhavan, a play area for kids. '''Puttaani Express''' a small toy train for kids, runs inside the Bal Bhavan attracts kids from far and near. For attractions around the park, see the [[#Cubbon Park area","(12.975, 77.593333)"
2,,,,,,12.9094,77.3956,,,Dodda Alada Mara ,Do_Parks and stadiums,wikivoyage,red,,,, , ,A giant 400-year-old Banyan tree about {{km,"(12.9094, 77.3956)"
3,,,,,,13.046667,77.586667,,,Hebbal Lake ,Do_Parks and stadiums,wikivoyage,red,,,, , ,One of the three lakes created in 1537 during the rule of Kempe Gowda.,"(13.046667, 77.586667)"
4,,,,,,13.0456,77.55641,,,HMT Area ,Do_Parks and stadiums,wikivoyage,red,,,,BEL Junction , ,This area is dotted with parks and green layouts. Examples are General Ayyappa Park and Kittur Rani Chennamma Park. The J.P.Park is nearby. Lodges are available at Mathikere and Jalahalli.,"(13.0456, 77.55641)"
5,,,,,,13.03475,77.55057,,,J. P. Park ,Do_Parks and stadiums,wikivoyage,red,,,,"Mathikere, Near Yashwanthpur Railway Station ", ,"The third largest park in Bangalore, covering 85 acres. There are many statues of animals and provision for children's' games. The park includes four lakes, 25 acres of lawns, over 250 varieties of trees and shrubs (including select exotic and aquatic species, and a nursery), a nature centre, an exhibition plaza, and an amphitheatre.","(13.03475, 77.55057)"
6,,,,,,0.0,0.0,,,--,Do_Parks and stadiums,wikivoyage,red,,,,,,,"(0, 0)"
7,,,,,,13.00991,77.57479,,,Sankey Tank ,Do_Parks and stadiums,wikivoyage,red,,,, , ,A pleasant lake,"(13.00991, 77.57479)"
8,,,,,,12.969556,77.593469,,,Sree Kanteerava Stadium ,Do_Parks and stadiums,wikivoyage,red,,,, , ,,"(12.969556, 77.593469)"
9,,,,,,12.981472,77.619214,,,Ulsoor Lake ,Do_Parks and stadiums,wikivoyage,red,,,, , ,"One of the biggest lakes in Bangalore, and it and has several islands. There's a watch tower on Ulsoor Lake with a Chinese bell.","(12.981472, 77.619214)"
0,,,,,,13.135833,77.6075,,,Aero India ,Do_Fairs &amp; exhibitions,wikivoyage,red,,,, ,http://www.aeroindia.in ,"Held in the second week of February every alternate year (the next one is in 2025), this is Asia's premier air show. Spanning 5 days but open to the public only on the last 3 days (F-Su), the show at Yelahanka Air Force Base in the northern part of Bangalore comprises a defence exhibition and air show. Fighter jets from around the world are on flying and on static display. Normally, there are two air shows every day - one in the morning and the other in the afternoon. Tickets can be purchased online or at select outlets - scan the newspapers for more information. (Purchasing a ticket at outlets requires you to show a photo identification and tickets are non-transferable. For the 2011 edition, Pakistani nationals were not permitted to register via the website.).","(13.135833, 77.6075)"
1,,,,,,12.99053,77.58234,,,Chitra Santhe (Paintings market) ,Do_Fairs &amp; exhibitions,wikivoyage,red,,,, , ,"An annual exhibition, held on the first Sunday of every year in January, the Chitra Santhe on Kumara Krupa Road (near Golf Course) brings together artists from all across Karnataka. Paintings, pottery, and sculpture are all on an exhibition-cum-sale. The road is closed for traffic on that day, making it possible to have a leisurely stroll, admiring and buying the items. Prices range from ₹100-20,000. Bargaining is recommended, but not too hard. Pay a fair price. (Credit cards and foreign currency are rarely accepted, so carry sufficient cash in Indian currency).","(12.99053, 77.58234)"
2,,,,,,12.945,77.56786,,,Kadlekai Parishe (Peanut fair) ,Do_Fairs &amp; exhibitions,wikivoyage,red,,,, , ,"Every year, sometime during the months of Nov-Dec, the area around Bull Temple Road in South Bangalore hosts a peanut fair. Centuries ago, the villages in and around this area used to cultivate peanuts and the custom was to dedicate the first crop to Nandi (the Bull at the temple). Although the villages of yore are today residential areas, the tradition continues as peanut farmers congregate to sell their crop. The 2 day traditional fair has many stalls that sell peanuts, trinkets, bangles, pottery, dolls etc. There are also a number of food stalls.","(12.945, 77.56786)"
3,,,,,,0.0,0.0,,,Flower Show (Biannual) ,Do_Fairs &amp; exhibitions,wikivoyage,red,,,,, ,"A bi-annual affair at Lalbagh Botanical Gardens Bangalore, during the Independence Day (August 15th) & Republic Day (January 26th). Various companies display their floral exhibits in this period, normally held from a week before the above mentioned days. Main epicentre would be a Rose arrangement representing a theme, or a heritage structure, which attracts major crowd from around Bangalore.","(0, 0)"
4,,,,,,0.0,0.0,,,Mango Mela ,Do_Fairs &amp; exhibitions,wikivoyage,red,,,, , ,"An annual affair, during the beginning of the summer season, the season for the king of fruits. Normally, Mangoes (raw & ripe), cultivated in the Bangalore rural districts as well as neighbouring Kolar and Chikballapur districts are brought and kept for show as well as sale during this period, at Lalbagh Botanical Gardens. A must visit for mango fans.","(0, 0)"
0,,,,,,0.0,0.0,,,Concerts at Bengaluru Palace Grounds ,Do_Arts and theatre,wikivoyage,red,,,, , ,"Check the local listings to see if any concerts are happening. Most international acts happen at Bengaluru Palace Grounds and the venue has hosted Metallica, The Rolling Stones, Bryan Adams, Iron Maiden, Deep Purple, Joe Satriani, Mark Knopfler, Aerosmith, Sting, Uriah Heep, Lamb of God, Megadeth, Machinehead, Scorpions among others.","(0, 0)"
1,,,,,,0.0,0.0,,,Rangashankara ,Do_Arts and theatre,wikivoyage,red,,,,"36/2, 8th Cross, J.P. Nagar, 2nd Phase ",http://www.rangashankara.org ,"Many local groups perform here, although more often shows are presented by traveling groups touring India. Quality of the performances varies, but most plays are worth seeing, especially the ones by Indian playwrights or directors, as they can show you an Indian (or non-western) perspective. Shows are in various languages, so it is a good idea to double-check whether the play is in English before buying or reserving (blocking) tickets. Tickets cost ₹45–100.","(0, 0)"
0,,,,,,0.0,0.0,,,Cinemax ,Do_Movies,wikivoyage,red,,,, ,http://www.cinemax.co.in/ ,,"(0, 0)"
1,,,,,,0.0,0.0,,,Cinepolis ,Do_Movies,wikivoyage,red,,,,"Royal Meenakshi Mall, Bannerghatta Rd; ETA Mall, Binny Pete; Forum Shantiniketan, Whitefield ", ,,"(0, 0)"
2,,,,,,0.0,0.0,,,Gopalan Cinemas ,Do_Movies,wikivoyage,red,,,,"Arch Mall, Mysore Rd, ",http://gopalanmall.com/ ,"Gopalan Mall, Mysore Road; Gopalan Mall, Near Jayadeva Hospital, Bannerghatta Road ; Gopalan Mal;, Old Madras Road, Near Baiyappanhalli Metro Station","(0, 0)"
3,,,,,,0.0,0.0,,,Inox theatre ,Do_Movies,wikivoyage,red,,,,"Bangalore Central, JP Nagar, Fame Cinemas, MG Road, Forum Value Mall, Whitefield, Garuda Mall, Magrath Road, Lido Mall, Ulsoor, Mantri Square, Malleshwaram, Garuda Swagath Mall, Jayanagar ",http://www.inoxmovies.com/ ,,"(0, 0)"
4,,,,,,0.0,0.0,,,PVR Cinemas ,Do_Movies,wikivoyage,red,,,,"Forum Mall, Koramangala, Orion Mall, Malleshwaram, The Phoenix Market City Mall, Whitefield; Vega Mall, JD Mara signal ",http://www.pvrcinemas.com/ ,,"(0, 0)"
0,,,,,,12.9488544,77.640002,,,The 5th Element ,Do_Spa &amp; massage,wikivoyage,red,,,,Inner Ring Rd ,http://www.thefifthelement.in ,"Spa. All practitioners are from Thailand and offer authentic Thai massage, scrubs, and wraps.","(12.9488544, 77.640002)"
1,,,,,,0.0,0.0,,,Aroma Home Spa ,Do_Spa &amp; massage,wikivoyage,red,,,,"Brookefields, ITPL Main Rd ",http://www.aromahomespa.com ,Natural eco-friendly products in use. Hydro therapy massage in addition to therapies suited to individual needs.,"(0, 0)"
2,,,,,,0.0,0.0,,,Ayur Sukha ,Do_Spa &amp; massage,wikivoyage,red,,,, ,http://www.ayursukha.com/l_banglore.html ,"Very nice, clean and professional spa in a nice neighborhood. 1 hr basic Ayurvedic treatment (massage and steam) is about ₹1,000.","(0, 0)"
3,,,,,,12.9817058,77.5987234,,,SPA.ce ,Do_Spa &amp; massage,wikivoyage,red,,,,Cunningham Rd ,http://www.spacethespa.com ,"Run by an expat Brit offers a variety of massages, scrubs, and facials.","(12.9817058, 77.5987234)"
4,,,,,,0.0,0.0,,,Sundaythespa ,Do_Spa &amp; massage,wikivoyage,red,,,,"No.627/628, 5th Cross Road, 15th Main, 80 Feet Road, 4th Block, Koramangala Layout ",http://www.sundaythespa.com ,"Incorporates Ayurvedic, Indian and East Asian practices, offers professional services by well-trained staff.","(0, 0)"
0,,,,,,0.0,0.0,,,--,Buy,wikivoyage,red,,,,,,,"(0, 0)"
1,,,,,,12.91112,77.6001,,,Bannerghatta Road ,Buy,wikivoyage,red,,,, , ,"Grasshopper is a space that exhibits clothing designs from the most experimental designers in India and also showcases other ideas - lighting design, products, theatre, music - an open space for expression! If that's too boring, you can keep driving and you have a thousand ways that you can take to enjoy the wildlife and the myriad reservoirs strewn across the area - you can still find your very own private haven.","(12.91112, 77.6001)"
2,,,,,,12.9752,77.60817,,,Brigade Road/M.G. Road ,Buy,wikivoyage,red,,,, , ,"The most popular place for tourists. These two roads are filled with shops of every kind, whether it be traditional handicrafts or the latest western wear (this is especially true for Brigade Road). Brigade Road, where British soldiers used to buy their necessities, is now the centre of yuppie Bangalore; you'll see hordes of college students on the road any time of day or night. Stores on Brigade Road include: Planet M (a huge music store with everything), Tommy Hilfiger, Louis Phillipe, Pepe Jeans, Levis, Lee, SanFrisco Jeans, Nike, and Titan (great Indian made watches). There are also many eateries on Brigade road and on the side roads that lead off it. Fast food outlets include KFC (right at the entrance), Pizza Hut (at the other end of the road), and many cafes including the Indian coffee chain Cafe Coffee Day. Also includes a tattoo studio. M.G. Road is short for Mahatma Gandhi road.","(12.9752, 77.60817)"
3,,,,,,12.98219,77.60824,,,Commercial Street ,Buy,wikivoyage,red,,,, , ,"A legacy of the British is another shopping mecca that sells international brands (similar to Brigade road) alongside locally produced items. Commercial Street has more of a bazaar feel than Brigade Road. In addition, it is famous for its body piercing centres. The price of goods here is very competitive and it is a great place to pick a bargain.","(12.98219, 77.60824)"
4,,,,,,0.0,0.0,,,Sampige Road ,Buy,wikivoyage,red,,,, , ,"The heart of Malleswaram district, connecting Sheshadripuram to IISc. Sampige Road is around {{km","(0, 0)"
0,,,,,,0.0,0.0,,,--,Buy_Shopping districts,wikivoyage,red,,,,,,,"(0, 0)"
1,,,,,,12.91112,77.6001,,,Bannerghatta Road ,Buy_Shopping districts,wikivoyage,red,,,, , ,"Grasshopper is a space that exhibits clothing designs from the most experimental designers in India and also showcases other ideas - lighting design, products, theatre, music - an open space for expression! If that's too boring, you can keep driving and you have a thousand ways that you can take to enjoy the wildlife and the myriad reservoirs strewn across the area - you can still find your very own private haven.","(12.91112, 77.6001)"
2,,,,,,12.9752,77.60817,,,Brigade Road/M.G. Road ,Buy_Shopping districts,wikivoyage,red,,,, , ,"The most popular place for tourists. These two roads are filled with shops of every kind, whether it be traditional handicrafts or the latest western wear (this is especially true for Brigade Road). Brigade Road, where British soldiers used to buy their necessities, is now the centre of yuppie Bangalore; you'll see hordes of college students on the road any time of day or night. Stores on Brigade Road include: Planet M (a huge music store with everything), Tommy Hilfiger, Louis Phillipe, Pepe Jeans, Levis, Lee, SanFrisco Jeans, Nike, and Titan (great Indian made watches). There are also many eateries on Brigade road and on the side roads that lead off it. Fast food outlets include KFC (right at the entrance), Pizza Hut (at the other end of the road), and many cafes including the Indian coffee chain Cafe Coffee Day. Also includes a tattoo studio. M.G. Road is short for Mahatma Gandhi road.","(12.9752, 77.60817)"
3,,,,,,12.98219,77.60824,,,Commercial Street ,Buy_Shopping districts,wikivoyage,red,,,, , ,"A legacy of the British is another shopping mecca that sells international brands (similar to Brigade road) alongside locally produced items. Commercial Street has more of a bazaar feel than Brigade Road. In addition, it is famous for its body piercing centres. The price of goods here is very competitive and it is a great place to pick a bargain.","(12.98219, 77.60824)"
4,,,,,,0.0,0.0,,,Sampige Road ,Buy_Shopping districts,wikivoyage,red,,,, , ,"The heart of Malleswaram district, connecting Sheshadripuram to IISc. Sampige Road is around {{km","(0, 0)"
0,,,,,,12.97345,77.61125,,,Bengaluru Central ,Buy_Shopping malls,wikivoyage,red,,,,Residency Road , ,Bengaluru Central is more of a large department store than a mall with separate retailers.,"(12.97345, 77.61125)"
1,,,,,,12.93459,77.61126,,,Forum Mall ,Buy_Shopping malls,wikivoyage,red,,,, , ,"One of the well-known malls in Bangalore in an upscale suburb. Stores range from high international brands to traditional Indian Khadi clothing at the Khadder. The top floor of the mall contains an 11-screen cinema. For eating there is fast food and world cuisines including: Chinese, Vietnamese, Mexican and Italian and Indian. The PVR Cinema hall is here too.","(12.93459, 77.61126)"
2,,,,,,12.97004,77.60968,,,Garuda Mall ,Buy_Shopping malls,wikivoyage,red,,,, , ,On the corner of McGrath and Commissariat Roads.,"(12.97004, 77.60968)"
3,,,,,,12.94594,77.57058,,,Gandhi Bazaar ,Buy_Shopping malls,wikivoyage,red,,,, , ,"One of the oldest shopping areas in Bangalore, Gandhi Bazaar stretches for a short kilometer or so, bordered on both sides by shops selling everything from saris and clothes to plastics and kitchen utensils, fronted by vegetable and fruit stalls.","(12.94594, 77.57058)"
4,,,,,,12.9295,77.58451,,,Jayanagar Shopping Complex ,Buy_Shopping malls,wikivoyage,red,,,, , ,"From antique jewellery stores, the authentic gold jewelry stores, saree stores, sweet meat stores, classic Iyengar bakeries, dress stores, and food stores that sell fresh vegetables, fruits, meat, and butter. Most of the products are comparatively cheap and are often value for money.","(12.9295, 77.58451)"
5,,,,,,12.96683,77.61172,,,Lifestyle ,Buy_Shopping malls,wikivoyage,red,,,, , ,"A two-story store on Victoria Road in the heart of the new mall shopping district. This was one of the most coveted stores until the malls came along. It's an easy place to go shopping when you don't want too many options to confuse you or when you're tired and don't want to visit too many shops - you can get everything under one roof here. Good for clothes, cosmetics, watches, jewellery, shoes etc. You also get stylish furniture and other home and living items for a decent price.","(12.96683, 77.61172)"
6,,,,,,12.99225,77.570333,,,Mantri Square ,Buy_Shopping malls,wikivoyage,red,,,,Malleswaram ,http://www.mantrisquare.com ,,"(12.99225, 77.570333)"
7,,,,,,0.0,0.0,,,Marathahalli Main Road and Factory Outlets ,Buy_Shopping malls,wikivoyage,red,,,, , ,"Some distance from central Bangalore (although not difficult to reach) is Marathahalli (a village in a previous life). The main road of this suburb is now a haven for factory outlets for all major brands. You can expect prices here to be cheaper than in the malls, at least 20-30% price difference but can be up to 50% cheaper when it comes to some of the major denim brands. As if India wasn't cheap enough. Although this is the best place to go to for factory outlet shopping, there are smaller factory outlets scattered across the city. Also look out for sales held by the major brands to get rid of end of season stock (again end of summer or end of monsoon), these are usually advertised in newspapers or look for signs posted on major roads.","(0, 0)"
8,,,,,,0.0,0.0,,,Metro shopping mall ,Buy_Shopping malls,wikivoyage,red,,,, , ,,"(0, 0)"
9,,,,,,12.996923,77.696862,,,Phoenix Marketcity ,Buy_Shopping malls,wikivoyage,red,,,, , ,"It is the largest mall in Bangalore by area. There is something for everyone in this mall. This mall has many upscale restaurants, electronic shops, bookstores, toy stores and a large selection of clothes, cosmetics, shoes, etc.","(12.996923, 77.696862)"
10,,,,,,12.97977,77.60696,,,Safina Plaza ,Buy_Shopping malls,wikivoyage,red,,,, , ,"The sale capital of Bangalore, on Infantry Road. Every week there is sale going on of any type. One week it might be home furnishings and the next men's wear. Good place to find some bargains. Many exhibitions are also held here, although there are retailers here too. So for quiet shopping come here (much less crowded than the other malls). Its best to visit during end of season sales (summer, monsoon) or during festivals (New Year, Christmas, Ganesh Chaturthi).","(12.97977, 77.60696)"
0,,,,,,12.96563,77.57636,,,KR Market ,Buy_Markets,wikivoyage,red,,,, , ,The city's largest vegetable and fruit market is in the heart of the city,"(12.96563, 77.57636)"
0,,,,,,0.0,0.0,,,C. Krishniah Chetty & Sons ,Buy_Individual stores,wikivoyage,red,,,,2-1 Main Cross Rd ,http://www.ckcsons.com ,{{convert,"(0, 0)"
1,,,,,,12.9820126,77.6086888,,,C. Krishniah Chetty & Sons-The Heritage Store ,Buy_Individual stores,wikivoyage,red,,,,35 & 36 Commercial St ,http://www.ckcsons.com ,Dedicated to gold and silver.,"(12.9820126, 77.6086888)"
2,,,,,,0.0,0.0,,,Giantti Luxury Ensemble ,Buy_Individual stores,wikivoyage,red,,,, , ,Diamond & gold jewellery along with silver articles and idols.,"(0, 0)"
3,,,,,,0.0,0.0,,,--,Buy_Individual stores,wikivoyage,red,,,,,,,"(0, 0)"
0,,,,,,0.0,0.0,,,C. Krishniah Chetty & Sons ,Buy_Individual stores_Jewellery,wikivoyage,red,,,,2-1 Main Cross Rd ,http://www.ckcsons.com ,{{convert,"(0, 0)"
1,,,,,,12.9820126,77.6086888,,,C. Krishniah Chetty & Sons-The Heritage Store ,Buy_Individual stores_Jewellery,wikivoyage,red,,,,35 & 36 Commercial St ,http://www.ckcsons.com ,Dedicated to gold and silver.,"(12.9820126, 77.6086888)"
2,,,,,,0.0,0.0,,,Giantti Luxury Ensemble ,Buy_Individual stores_Jewellery,wikivoyage,red,,,, , ,Diamond & gold jewellery along with silver articles and idols.,"(0, 0)"
3,,,,,,0.0,0.0,,,--,Buy_Individual stores_Jewellery,wikivoyage,red,,,,,,,"(0, 0)"
0,,,,,,0.0,0.0,,,The Cauvery Arts & Crafts Emporium ,Buy_Individual stores_Handicrafts,wikivoyage,red,,,,45 MG Rd , ,"A large store, offering a wide selection of some of Karnataka's best hand made products. The carvings made of [[Mysore]] sandalwood are an especially good buy.","(0, 0)"
1,,,,,,12.9755264,77.6067902,,,Central Cottage Industries Emporium ,Buy_Individual stores_Handicrafts,wikivoyage,red,,,,MG Rd , ,"A government run store promoting traditional Indian hand crafts. The CCIE has major outlets in New [[Delhi]], [[Mumbai]], [[Kolkata]], Bangalore and [[Chennai]].","(12.9755264, 77.6067902)"
2,,,,,,0.0,0.0,,,Miras Carpet Industries ,Buy_Individual stores_Handicrafts,wikivoyage,red,,,,"No.7, Ground Floor, Suryodai Complex, Old Airport Rd, Kodihalli ",https://www.mirascrafts.com/ ,"Manufacturers and exporters of carpets, rugs, kilims, Indian handicrafts, jewellery, pashmina shawls, cashmere scarfs, silk sarees, etc. Claims to be the biggest dealer of Oriental carpets and rugs in Bangalore, selling high quality and ""locally priced"" wares. Valet car parking available.","(0, 0)"
3,,,,,,12.9755264,77.6067902,,,Chandi - The Divine Gallery ,Buy_Individual stores_Handicrafts,wikivoyage,red,,,,MG Rd , ,"Specialising in Indian divine figures in all mediums. Claims to have the biggest collection of Ganeshas in town. High-quality and locally-priced wares, supposedly no pushy salesmanship.","(12.9755264, 77.6067902)"
4,,,,,,0.0,0.0,,,Kala Madhyam Store' ,Buy_Individual stores_Handicrafts,wikivoyage,red,,,,"2nd floor, Flat No 2, Benson Town #77/8, Nandidurg Rd ",https://www.facebook.com/KalaMadhyamIndia/ ,"Folk and tribal art paintings, handicrafts from across India, clothing for women. Specialises in wall murals of folk and tribal art as well as terracotta.","(0, 0)"
5,,,,,,12.9755264,77.6067902,,,Karnataka State Handicrafts Development Corporation ,Buy_Individual stores_Handicrafts,wikivoyage,red,,,,"45 K.S.H.D.C Complex, MG Rd ", ,Specialises in Karnataka handicraft.,"(12.9755264, 77.6067902)"
6,,,,,,0.0,0.0,,,Royal Arts & Crafts ,Buy_Individual stores_Handicrafts,wikivoyage,red,,,, , ,21 K.H. Rd. Has a particularly wide selection of silk carpets and paper mache products.,"(0, 0)"
0,,,,,,0.0,0.0,,,Gangarams Book Bureau ,Buy_Individual stores_Bookstores,wikivoyage,red,,,,"#3, Church Street, 3rd Floor ",http://gangaramsbookbureau.com/ ,"Since 1977, a destination for booklovers with books in a diverse range from academic, professional and technical to fiction and non-fiction.","(0, 0)"
1,,,,,,12.9749032,77.6052899,,,Blossoms ,Buy_Individual stores_Bookstores,wikivoyage,red,,,,Church St , ,"There are 3 full floors of those rare, hard to find old books. All 2nd hand, good condition and at low rates.","(12.9749032, 77.6052899)"
2,,,,,,0.0,0.0,,,The Bookworm ,Buy_Individual stores_Bookstores,wikivoyage,red,,,, , ,This is a small used book store. Good bargains on used and new books are available here.,"(0, 0)"
3,,,,,,12.9719166,77.6070202,,,Crossword ,Buy_Individual stores_Bookstores,wikivoyage,red,,,,Residency Rd , ,"A hot spot for books of various genres combined with seating areas, spacious racks, music and movie section, children's section and a coffee shop. A wonderful hangout to read, browse and shop.","(12.9719166, 77.6070202)"
4,,,,,,12.9807251,77.6055259,,,Elloor Library ,Buy_Individual stores_Bookstores,wikivoyage,red,,,,"Blue Cross Chambers, Infantry Rd ", ,"A circulating library that has a wide range of fiction and non-fiction books, including new titles. Requires membership which includes a deposit.","(12.9807251, 77.6055259)"
5,,,,,,0.0,0.0,,,Gangarams Indiranagar ,Buy_Individual stores_Bookstores,wikivoyage,red,,,,330/9 Axis Road Domlur Inner Ring Rd. Domlur Layout. Near Indira Nagar Flyover , ,"A wide selection of fiction and non-fiction books, including textbooks and professional works, stationery, multimedia, movies, toys, art material and gifts.","(0, 0)"
6,,,,,,0.0,0.0,,,Gangarams Mg road ,Buy_Individual stores_Bookstores,wikivoyage,red,,,,"Triumph Tower, 2nd Floor, 48 Church St ", ,"A wide selection of fiction and non-fiction books, including textbooks and professional works.","(0, 0)"
7,,,,,,12.9749032,77.6052899,,,Goobes Book Republic ,Buy_Individual stores_Bookstores,wikivoyage,red,,,,"46-1-1 Church St, Karnataka ",http://www.goobes.wordpress.com ,Secondhand and new books on a wide variety of subjects and a very cost effective library option and buy back used books.,"(12.9749032, 77.6052899)"
8,,,,,,12.9749918,77.6087811,,,Higginbothams ,Buy_Individual stores_Bookstores,wikivoyage,red,,,,68 MG Rd , ,"This bookstore has a good selection of maps, postcards, guides and novels.","(12.9749918, 77.6087811)"
9,,,,,,0.0,0.0,,,Oxford Book Store ,Buy_Individual stores_Bookstores,wikivoyage,red,,,, , ,"Has some of the latest collection of books and magazines but, doesn't offer any discounts. It has a Chai Bar attached offering 69 blends of tea.","(0, 0)"
10,,,,,,12.97570865,77.60270134594533,,,Premier Book Shop ,Buy_Individual stores_Bookstores,wikivoyage,red,,,,46/1 Church St , ,"A venerable institution that has books on every conceivable subject literally stacked from floor to ceiling. Although the store may appear to be utterly chaotic, the owner knows where every piece of his stock lies - just be careful with those elbows, a slight nudge and the whole place will come tumbling down. This store however, will shut down shortly.","(12.97570865, 77.60270134594533)"
11,,,,,,0.0,0.0,,,Sapna Book House ,Buy_Individual stores_Bookstores,wikivoyage,red,,,,"3rd Main Rd, near Kamat Yatri Nivas, Gandhi Nagar ",http://www.sapnaonline.com/ ,"This is a large bookstore, they also have branches in three other locations Sadashivnagar, Jayanagar, and Indiranagar. Sapna Book House also provides online book delivery.","(0, 0)"
12,,,,,,12.9663221,77.6068047,,,Select Bookshop ,Buy_Individual stores_Bookstores,wikivoyage,red,,,,Brigade Rd , ,"Used to be the only old bookstore. Mr Murthy, who runs the bookstore, is one of the most knowledgeable people. His grandfather started the bookstore. He also has a collection of lithographs, stained glass paintings and collectors copies of antique books.","(12.9663221, 77.6068047)"
13,,,,,,12.9742664,77.6139982,,,The Strand book stall ,Buy_Individual stores_Bookstores,wikivoyage,red,,,,Dickenson Rd ,http://www.strandbookstall.com/ ,"Best known for the latest releases in art, design, architecture and all at good prices.","(12.9742664, 77.6139982)"
14,,,,,,0.0,0.0,,,Streelekha ,Buy_Individual stores_Bookstores,wikivoyage,red,,,,"33/1-9, Thyagaraja Layout, Jaibharath Nagar ", ,"This is a great bookstore to explore the feminist literature and activism that is being produced in India, as well as other texts on the research and work of Indian NGOs. The atmosphere is relaxing and inviting.","(0, 0)"
15,,,,,,0.0,0.0,,,Tata Book House ,Buy_Individual stores_Bookstores,wikivoyage,red,,,, , ,"At the Indian Institute of Science, Malleswaram. Has a large collection of technical books, on which it offers a flat 20 percent discount. Lots of books in a small place. Also worth visiting just because it is in IISc.","(0, 0)"
0,,,,,,0.0,0.0,,,Arnav ,Buy_Individual stores_Boutiques,wikivoyage,red,,,, ,http://www.arnav.in ,"The quaint little jewellery store at Ashoka Pillar, Jayanagar makes for very interesting jewellery buys, a range of antique, restored, contemporary and fusion jewellery are on display. They could help you design a piece of jewellery to suit your needs, an in-house jewellery consultant could help you choose your jewellery.","(0, 0)"
1,,,,,,0.0,0.0,,,Aura Creations ,Buy_Individual stores_Boutiques,wikivoyage,red,,,,"Shop No.3, Plot No. 2 Nandagokula Layout, Shampura Main Rd ", ,Designer boutique with exclusive dress materials.,"(0, 0)"
2,,,,,,0.0,0.0,,,Chilli Billi ,Buy_Individual stores_Boutiques,wikivoyage,red,,,, , ,"Great for women's westernwear', especially the dresses, good collection of bags, shoes and jewellery. They also offer home decor solutions.","(0, 0)"
3,,,,,,8.4884106,76.9415011,,,Levitate-InDiA in A RooM ,Buy_Individual stores_Boutiques,wikivoyage,red,,,,100 Ft. Rd , ,"Silver & costume handcrafted Jewellery, Bohemian apparel, Indian kitsch, lifestyle accessories.","(8.4884106, 76.9415011)"
4,,,,,,0.0,0.0,,,Mahendra Textiles ,Buy_Individual stores_Boutiques,wikivoyage,red,,,, , ,"Sarees and dress materials from Surat, Mumbai, Kolkata, Rajasthan, Varanasi, Kerala and Sri Lanka.","(0, 0)"
5,,,,,,12.9704079,77.610292,,,Marmalade ,Buy_Individual stores_Boutiques,wikivoyage,red,,,,Magrath Rd , ,Loads of affordable young designer wear.,"(12.9704079, 77.610292)"
6,,,,,,0.0,0.0,,,Native Place ,Buy_Individual stores_Boutiques,wikivoyage,red,,,, , ,"Loads of interesting merchandise, crafts made by NGOs, c/o The Only Place Restaurant.","(0, 0)"
7,,,,,,0.0,0.0,,,One G ,Buy_Individual stores_Boutiques,wikivoyage,red,,,, , ,"(Jewellery) Hatworks Boulevard, Cunningham Rd.","(0, 0)"
8,,,,,,0.0,0.0,,,President's Groom Concepts ,Buy_Individual stores_Boutiques,wikivoyage,red,,,,B.v.k.iyengar Rd and Kamraj Rd , ,"Two menswear fashion stores. Fine fabrics for made-to-order and a large ready-to-wear collection. Bespoke suits and made to order clothing including tuxedos, business wear to traditional Indian kurtas and sherwanis.","(0, 0)"
9,,,,,,12.9732898,77.6380466,,,Sakhi by Chandras ,Buy_Individual stores_Boutiques,wikivoyage,red,,,,"6th main, HAL 2nd stage, Indiranagar ",http://www.sakhifashions.com ,"Combines traditional fabrics and craftsmanship with contemporary themes. Sakhi’s sarees, salwars and kurtis combine kanchivaram, tussar, chiffon, georgette, crêpe, organza and cotton with traditional techniques such as cut work, block print, kalamkari, badla, mirror work, chamki (sequins) and embroidery in a mélange of colours.","(12.9732898, 77.6380466)"
10,,,,,,0.0,0.0,,,Stritva near ITPL ,Buy_Individual stores_Boutiques,wikivoyage,red,,,,"294, 8th main, BEML Layout, ITPL Main Rd ",http://www.stritva.com ,"Sells readymade salwar suit, kameez, kurtas, dress material, sarees and nightwear. The store has a good collection at good prices.","(0, 0)"
0,,,,,,0.0,0.0,,,Habitat ,Buy_Individual stores_Music and movies,wikivoyage,red,,,,"Church Street, Off Brigade Road ", ," Tiny compared to other retail music/movie stores, it's a delight for lovers of good music especially Jazz. Has an excellent and varied selection of DVDs for rent as well, though membership is closed.","(0, 0)"
0,,,,,,0.0,0.0,,,--,Buy_Individual stores_Electronics,wikivoyage,red,,,,,,,"(0, 0)"
0,,,,,,12.8357078,77.5148146,,,The Art of Living ,Learn,wikivoyage,red,,,,"Kanakapura Road, Udayapura ",http://www.artofliving.org/bangalore-ashram ,"The campus is also the focal point of many service projects such as rural development and education, organic farming initiatives, scientific research into the benefits of ‘Sudarshan Kriya’ While at the ashram, one cannot miss the Satsangs that are held every evening. Satsangs are gatherings where scattered minds unite through music, meditation, and wisdom to experience a higher state of consciousness. People from all over the world who know different languages participate in the singing of bhajans, or the repetitive chanting of a word or a verse.","(12.8357078, 77.5148146)"
1,,,,,,0.0,0.0,,,ISKCON ,Learn,wikivoyage,red,,,,"ISKCON Sri Radha Krishna-Chandra Temple,Hare Krishna Hill, Chord Rd ",http://www.iskconbangalore.org/ ,"The International Society for Krishna Consciousness (ISKCON) temple in Bangalore city is huge cultural complex that was inaugurated in 1997 to carry out the vision of A.C. Bhaktivedanta Swami Prabhupada, the Founder-Acarya of ISKCON, to promote Vedic culture and spiritual learning. ISKCON Sri Radha Krishna-chandra Mandir attracts visitors from different parts of the world and it is more than a place of rituals. However, due to the huge flow of foreign visitors, it has mostly become a heavily commercialized place and less of a religious centre.","(0, 0)"
0,,,,,,12.8357078,77.5148146,,,The Art of Living ,Learn_Hinduism,wikivoyage,red,,,,"Kanakapura Road, Udayapura ",http://www.artofliving.org/bangalore-ashram ,"The campus is also the focal point of many service projects such as rural development and education, organic farming initiatives, scientific research into the benefits of ‘Sudarshan Kriya’ While at the ashram, one cannot miss the Satsangs that are held every evening. Satsangs are gatherings where scattered minds unite through music, meditation, and wisdom to experience a higher state of consciousness. People from all over the world who know different languages participate in the singing of bhajans, or the repetitive chanting of a word or a verse.","(12.8357078, 77.5148146)"
1,,,,,,0.0,0.0,,,ISKCON ,Learn_Hinduism,wikivoyage,red,,,,"ISKCON Sri Radha Krishna-Chandra Temple,Hare Krishna Hill, Chord Rd ",http://www.iskconbangalore.org/ ,"The International Society for Krishna Consciousness (ISKCON) temple in Bangalore city is huge cultural complex that was inaugurated in 1997 to carry out the vision of A.C. Bhaktivedanta Swami Prabhupada, the Founder-Acarya of ISKCON, to promote Vedic culture and spiritual learning. ISKCON Sri Radha Krishna-chandra Mandir attracts visitors from different parts of the world and it is more than a place of rituals. However, due to the huge flow of foreign visitors, it has mostly become a heavily commercialized place and less of a religious centre.","(0, 0)"
0,,,,,,0.0,0.0,,,Choe Khor Sum Ling ,Learn_Buddhism,wikivoyage,red,,,,"Ashwini, No. 24, 1st Floor, Domlur Layout ",http://www.cksl.in ,"This Tibetan Buddhist meditation and study centre is in Domlur Layout near Shanti Sagar Restaurant on Airport Road. CKSL is a centre for the study and practice of Mahayana Buddhism following the lineage and example of Lord Buddha. The Centre, whose name means 'The Three Turnings of the Wheel of Dharma' was founded in 2003 by Lama Zopa Rinpoche under the guidance of HH the XIVth Dalai Lama. The Centre offers courses in various Buddhist meditation techniques and teachings on different aspects of Buddhism. Teachings are offered free to the public and are conducted in English or in Tibetan (with translation in English). In addition to regular teachings, every few weeks the Centre invites senior Lamas to give talks on important aspects of the Buddhist path. Such talks are also accompanied by instructions and initiations by the Lama into different meditation practices.","(0, 0)"
1,,,,,,12.9785067,77.5810821,,,Maha Bodhi Society ,Learn_Buddhism,wikivoyage,red,,,,"14 Kalidasa Road, Gandhinagar ",http://education.vsnl.com/mahabodhi/ ,"This temple has a very active schedule. There are teachings on the Dharma in English on the first two and last Sundays of every month from 9:30-11:30AM, while on the 3rd Sunday there is a meditation retreat. Anyone is welcome to attend. The temple also has a good library and a beautiful garden - a great place to retreat from the hustle and bustle of the metropolis outside.","(12.9785067, 77.5810821)"
2,,,,,,0.0,0.0,,,Thubten Lekshey Ling ,Learn_Buddhism,wikivoyage,red,,,, ,http://www.lekshey.org ,"Nyingma Tibetan Buddhist meditation centre founded by the late His Holiness Pema Norbu (Penor) Rinpoche. The centre is close to MG Road on Ulsoor road, on the side of Manipal Centre. The centre conducts meditation classes, spiritual discourses and advanced study programs. Weekend teachings in meditation and philosophy are offered by lamas from Namdroling Monastery, [[Bylakupee]].","(0, 0)"
0,,,,,,0.0,0.0,,,--,Work,wikivoyage,red,,,,,,,"(0, 0)"
0,,,,,,0.0,0.0,,,--,Work_Indians,wikivoyage,red,,,,,,,"(0, 0)"
0,,,,,,0.0,0.0,,,--,Work_Non-Indians,wikivoyage,red,,,,,,,"(0, 0)"
0,,,,,,0.0,0.0,,,Kerala Restaurant ,Eat,wikivoyage,red,,,, , ,,"(0, 0)"
1,,,,,,0.0,0.0,,,The Adiga's chain ,Eat,wikivoyage,red,,,, , ,"Restaurants to the south of Bangalore. Prominent among them are in: Jayanagar 4th Block, take the road facing BHS First Grade College, Basavanagudi.","(0, 0)"
0,,,,,,0.0,0.0,,,Kerala Restaurant ,Eat_Budget,wikivoyage,red,,,, , ,,"(0, 0)"
1,,,,,,0.0,0.0,,,The Adiga's chain ,Eat_Budget,wikivoyage,red,,,, , ,"Restaurants to the south of Bangalore. Prominent among them are in: Jayanagar 4th Block, take the road facing BHS First Grade College, Basavanagudi.","(0, 0)"
0,,,,,,0.0,0.0,,,100ft Restaurant ,Eat_Mid-range,wikivoyage,red,,,,100 Foot Rd , ,"Indra Nagar. Westernised cooking, but notably better than any other pasta serving restaurant in the area. The restaurant is a bit of a hybrid of store/restaurant. ₹300-500.","(0, 0)"
1,,,,,,0.0,0.0,,,Alibaba Cafe & Restaurant ,Eat_Mid-range,wikivoyage,red,,,, , ,"Frazer Town. Arabian, Persian and Bhatkali cuisine described as ""An Arabian Lake in the Indian Ocean"". A themed restaurant with the feel of Arabia, Persia and India. The ""Shaiya Biryani"" of the Bhatkali cuisine, the Al faham chicken barbeque out of the Arabian cuisine and the chicken Jujeh kabab from the Persian cuisine are all recommended.","(0, 0)"
2,,,,,,12.9755264,77.6067902,,,Caesar's Restaurant ,Eat_Mid-range,wikivoyage,red,,,,MG Rd , ,Indian and continental food. Ambiance is good though the food is tad expensive. Parking is a problem.,"(12.9755264, 77.6067902)"
3,,,,,,0.0,0.0,,,Canopy ,Eat_Mid-range,wikivoyage,red,,,,"PU Building, M.G. Rd ", ,"Open air, multi-cuisine North-Indian food. Cooking techniques date back to the independence era offering the unique taste. Great outdoor ambiance in the middle of the central business district. ₹125-750","(0, 0)"
4,,,,,,12.9755264,77.6067902,,,Ebony ,Eat_Mid-range,wikivoyage,red,,,,MG Rd , ,"Stylish eatery with excellent evening views of the city. Service is a bit slow, but the ambiance makes it worth the wait. Book ahead for a terrace seat. ₹200-400","(12.9755264, 77.6067902)"
5,,,,,,12.9757994,77.6016921,,,The Egg Factory ,Eat_Mid-range,wikivoyage,red,,,,St.Marks Rd , ,"Multi-cuisine, The menu, as the name suggests, is all based on the indispensable ''egg''. Its also modelled on a factory with functional chairs and a menu that looks like an instruction manual. Its open for all day dining. Egg dishes from all over the world, including omelttes, scrambles, French toast, curries, sub's, pasta & desserts. Don't miss the fantastic huevos rancheros here, they make it as good as in Mexico. Innovative drinks, try the ''Chlorophyll Fix'', it looks and sounds weird, but tastes like heaven. Highly relaxed service.","(12.9757994, 77.6016921)"
6,,,,,,0.0,0.0,,,Grill Maximus ,Eat_Mid-range,wikivoyage,red,,,,17th cross 4 main HSR Layout , ,Famous for the Mediterranean cuisine.Also serve Arabian Indian and Italian Food. Only A la carte menu is available. ₹200-500,"(0, 0)"
7,,,,,,12.97579,77.60147,,,Koshy's ,Eat_Mid-range,wikivoyage,red,,,,St. Marks Rd , ,"A Bangalore institution, serving a smattering of Western favorites (like fish and chips) along with the usual South Indian fare in a bohemian-for-India atmosphere. On weekends, they serve up greasy Western-style breakfast, including omelettes and Bombay (i.e, French) Toast. Appam and stew is their Sunday breakfast special and a must eat. Turn right at the entrance for the more expensive (and decidedly less charming) A/C room. ₹50-200. Smoky, with sluggish service, and not particularly clean Koshy's still has plenty of character and history but its getting harder to justify their skyrocketing prices.","(12.97579, 77.60147)"
8,,,,,,0.0,0.0,,,Little Italy ,Eat_Mid-range,wikivoyage,red,,,,100 Foot Rd , ,"Indiranagar. A chic Italian vegetarian restaurant, faddish and over priced. Sometimes the staff switch off A/C if the tables are less than half-filled.","(0, 0)"
9,,,,,,12.9756281,77.6023664,,,Mainland China ,Eat_Mid-range,wikivoyage,red,,,,Church St , ,"Upscale Chinese food. Good, fairly authentic food and excellent service. Serves a decent lunch buffet. Also new outlet on 100ft Road, Indiranagar. ₹500-800.","(12.9756281, 77.6023664)"
10,,,,,,12.908739650000001,77.51355150720468,,,Pinxx ,Eat_Mid-range,wikivoyage,red,,,,Manipal centre , ,"A great place for Breakfast, lunch and dinner buffet. ₹200-400 per head.","(12.908739650000001, 77.51355150720468)"
11,,,,,,12.9720923,77.6051414,,,Le Rock Pub Cafe ,Eat_Mid-range,wikivoyage,red,,,,Rest House Rd , ,"Hot coffee to chilled Kingfisher beer on the tap awesome cocktails and even hand rolled Havana cigars. Salads, sandwiches, jacket baked potatoes to entrees. LRC also offers an Oxy Bar, Bangalore's first.","(12.9720923, 77.6051414)"
12,,,,,,0.0,0.0,,,Sahib Sindh Sultan ,Eat_Mid-range,wikivoyage,red,,,,"Level 2, Forum Mall, Hosur Rd, Koramangala ", ,"Train-themed restaurant with a delicious, upscale menu. It is supposed to showcase NWFP. Their kakori kebabs are excellent. It also serves wine with the food. Expect a long wait. Or book ahead and roam around the mall or grab a few drinks from the adjoining '''Firangi Paani'''. ₹150-500","(0, 0)"
13,,,,,,0.0,0.0,,,Samarkand ,Eat_Mid-range,wikivoyage,red,,,,"Gem Plaza, 66, Infantry Rd ", ,"North West frontier food (i.e., kebabs, Afghani) in a kitschy atmosphere but the food is great. You will need to book on weekends. ₹300-600.","(0, 0)"
14,,,,,,0.0,0.0,,,Sue's Food Place ,Eat_Mid-range,wikivoyage,red,,,,"Krishna Temple Rd, Indira Nagar ", ,"A Caribbean style restaurant run by Sue (Susan John from Trinidad and Tobago). It has an excellent buffet. Their Jamaican jerk chicken, salads and desserts are lovely. A la carte menu is available on certain days. ₹200-500","(0, 0)"
15,,,,,,0.0,0.0,,,--,Eat_Mid-range,wikivoyage,red,,,,,,,"(0, 0)"
0,,,,,,0.0,0.0,,,La Classic Hotel Extraordinaire ,Eat_Splurge,wikivoyage,red,,,,"Plot# 158, Yadavanahalli, Hosur Main road, Attibele ",http://www.laclassic.in/ ,"The only fine dining multi-cuisine restaurant outside Electronic City and on the way to Hosur caters to buffet breakfast, lunch and dinner apart from a selection from an international menu.","(0, 0)"
1,,,,,,12.98547275,77.58451596985077,,,Blue Ginger ,Eat_Splurge,wikivoyage,red,,,,Taj West End ,https://www.tajhotels.com/en-in/taj/taj-west-end-bengaluru/restaurants/blue-ginger/ ,High-end Vietnamese restaurant with a beautiful setting and excellent food.,"(12.98547275, 77.58451596985077)"
2,,,,,,0.0,0.0,,,Grasshopper ,Eat_Splurge,wikivoyage,red,,,,"45 Kalena Agrahara, Bannerghata Rd ", ,Freshly prepared seven course meal served on the table. Reservation required. Closed on Mondays.,"(0, 0)"
3,,,,,,0.0,0.0,,,Graze ,Eat_Splurge,wikivoyage,red,,,,"Taj Residency, MG Rd ", ,Has some of the best creative continental you will get in Bangalore.,"(0, 0)"
4,,,,,,0.0,0.0,,,I.Talia ,Eat_Splurge,wikivoyage,red,,,,"Park Hotel, Opposite 1 MG, Old Madras Rd ", ,Has the best Italian food in town,"(0, 0)"
5,,,,,,12.9665754,77.598623,,,Karavalli ,Eat_Splurge,wikivoyage,red,,,,Residency Rd , ,"Mangalorean, Goa, Karwar, and Kerala style cuisine. Best Indian food you will get when visiting BLR.","(12.9665754, 77.598623)"
6,,,,,,0.0,0.0,,,The Leela Palace Bengaluru Dining ,Eat_Splurge,wikivoyage,red,,,, ,https://www.theleela.com/en_us/hotels-in-bengaluru/the-leela-palace-hotel-bengaluru/dining/ ,"All-you-can-eat/drink brunch on Sunday is ₹2,000. They have 4 restaurants, Citrus Lounge (Brasserie kitchen), Zen (Pan Asian), Library Bar (serves all cuisine) and Jamavar (Authentic Indian). Generally overpriced compared to the Taj outlets (Blue Ginger, Graze, Karavalli)","(0, 0)"
7,,,,,,0.0,0.0,,,Monsoon ,Eat_Splurge,wikivoyage,red,,,,"Park Hotel, Old Madras Rd ", ,"24 hr cafe with a variety of Continental Dishes, Indian, South East Asian and Mediterranean. Ideal location for private parties.","(0, 0)"
8,,,,,,12.9671257,77.6078908,,,Olive Beach ,Eat_Splurge,wikivoyage,red,,,,Wood St , ,"A long time favourite that will serve you Italian meats and cheese in a nice setting, this is still among Bangalore's best.","(12.9671257, 77.6078908)"
9,,,,,,0.0,0.0,,,The Raj Pavilion ,Eat_Splurge,wikivoyage,red,,,,"ITC Windsor Manor, Golf Course Rd. ", ,"24/7 restaurant that offers the taste of the British Raj. Anglo-Lucknowi, Far East and Continental cuisine is served. Amongst the best in Bangalore.","(0, 0)"
10,,,,,,12.97140355,77.5974292,,,Sunny's ,Eat_Splurge,wikivoyage,red,,,,34 Vittal Mallya Rd , ,"Among the best restaurants in Bangalore. Try the starters, salads and pasta is fine here. Hot sandwiches for lunch. Also has a branch at Indira Nagar.","(12.97140355, 77.5974292)"
0,,,,,,0.0,0.0,,,Kadambam ,Eat_Regional cuisine,wikivoyage,red,,,,"Bull Temple Road, near Ramakrishna Ashram; West of Chord Rd ", ,,"(0, 0)"
1,,,,,,0.0,0.0,,,Kamat Yatrnivas ,Eat_Regional cuisine,wikivoyage,red,,,,"Gandhinagar; Bull Temple Road, Basavanagudi ", ,Serves special N Karnataka meals with jowar (Sorghum) rotis. They now have a branch on Bull Temple Road where they have local artists perform when you have dinner.,"(0, 0)"
2,,,,,,0.0,0.0,,,Maiya's ,Eat_Regional cuisine,wikivoyage,red,,,,"30th Cross Rd, Jayanagar 4 Block; 11th Cross Malleshwaram; Sajjan Rao Circle, Basavanagudi ", ,"Features a great amount of South Indian cuisine, and then lets you buy some more to take home. And in case that you don't like it, there are more places upstairs that have different cuisine (Jayanagar branch only).","(0, 0)"
3,,,,,,0.0,0.0,,,MTR 1924 ,Eat_Regional cuisine,wikivoyage,red,,,,"Mini Forest, JP Nagar; St. Marks Road; Indiranagar; ", ,New age chain from the folks who run Mavalli Tiffin Rooms (MTR) on Lalbagh Road.,"(0, 0)"
4,,,,,,13.0005359,77.5496996,,,Nalapaka ,Eat_Regional cuisine,wikivoyage,red,,,,Rajajinagar , ,"Serves special N Karnataka meals with jowar (Sorghum) rotis, Holige (stuffed sweet rotis). Known for the distinctive Butter Dosa and different varieties of coconut chutneys.","(13.0005359, 77.5496996)"
5,,,,,,0.0,0.0,,,South Indies ,Eat_Regional cuisine,wikivoyage,red,,,,Indiranagar; Infantry Rd ,http://thesouthindies.com/ ,"An upscale South Indian restaurant in Bangalore, that gives you a taste of authentic south Indian cuisine in an ambience that is equally tasteful.","(0, 0)"
6,,,,,,0.0,0.0,,,UpSouth ,Eat_Regional cuisine,wikivoyage,red,,,,"Mantri Square, Mallesharam; Orion Mall, Malleshwaram; Ecospace, Bellandur; 60 ft. Road, Koramangala ",http://upsouth.in/ ,"A quick service restaurant with an upbeat, contemporary look. Be it the vibrant, youthful interiors or the presentation of food in the form of combos, Upsouth is all set to break the dull clutter.","(0, 0)"
0,,,,,,12.9602703,77.6014085,,,Cafe Y ,Eat_European,wikivoyage,red,,,,Langford Rd , ,"Amazing sizzlers and steaks, nice ambiance.","(12.9602703, 77.6014085)"
1,,,,,,12.9324866,77.6134963,,,Friends Fast Food ,Eat_European,wikivoyage,red,,,,"Jyoti Nivas College Rd, Koramangala ", ,Great Conti food at college prices. Casa Picola fans will like this one.,"(12.9324866, 77.6134963)"
2,,,,,,0.0,0.0,,,Herbs & Spices ,Eat_European,wikivoyage,red,,,,80 Foot Rd , ,"On. Great pasta, pizza, and desserts.","(0, 0)"
3,,,,,,12.9581638,77.641321,,,Kebab Ki ,Eat_European,wikivoyage,red,,,,Koramangala , ,"for ""Adana Kebab"" and other Turkish dishes.","(12.9581638, 77.641321)"
0,,,,,,0.0,0.0,,,Kollapuri's ,Eat_Maharashtrian food,wikivoyage,red,,,,"429/31 30th Cross, 4th Block Jaya Nagar ", ,"An authentic Maharashtrian hotel run by Savaji. It serves bhakri, chapati and ""Sheckle Edme"" special Savaji stuffed roti with spicy sabjis and meat or other non veg items","(0, 0)"
1,,,,,,0.0,0.0,,,Rajvardhan Foods ,Eat_Maharashtrian food,wikivoyage,red,,,,"1291 25th Main Road, 9th Block Jaya Nagar East ", ,"Best known for its vadapav, sabudana vada, khichdi. It also offers bhakri, thalipeeth. The snacks and other food offered here is comparatively expensive. This is because it is Bangalore's only authentic Maharashtrian food outlet. It also serves food fresh, only prepared after placing the order, so the wait and price is compensated. The food quality is excellent.","(0, 0)"
0,,,,,,0.0,0.0,,,Dalama ,Eat_Odia food,wikivoyage,red,,,,"#37, 6th block, Koramangala, 100 ft Rd ", ,"Authentic Odia cuisine including vegetable curries, chapati, meat, fish, prawn, crab and chicken delicacies.","(0, 0)"
0,,,,,,12.9956015,77.571007,,,Halli Mane ,Eat_South Karnataka,wikivoyage,red,,,,"3rd Cross, Malleswaram ", ,Truly authentic and traditional Kannada style food.,"(12.9956015, 77.571007)"
1,,,,,,12.9914249,77.5603922,,,Janatha Hotel ,Eat_South Karnataka,wikivoyage,red,,,,"8th Cross, Malleshwaram ", ,"Another great place, famous for its butter masala dosas and vadas.","(12.9914249, 77.5603922)"
2,,,,,,12.9601866,77.5565477,,,Kamat Lokaruchi ,Eat_South Karnataka,wikivoyage,red,,,,Mysore Rd , ,Amazing food and ambience. Authentic Mangalorean meals.,"(12.9601866, 77.5565477)"
3,,,,,,0.0,0.0,,,Kamat Yatrinivas ,Eat_South Karnataka,wikivoyage,red,,,,Majestic; All around the city ,http://www.kamatyatri.in ,Authentic Mangalorean meals.,"(0, 0)"
4,,,,,,12.9665754,77.598623,,,Karavalli ,Eat_South Karnataka,wikivoyage,red,,,,Residency Rd , ,"Mangalorean, Goa, Karwar, and Kerala style cuisine.","(12.9665754, 77.598623)"
5,,,,,,12.9372774,77.6266203,,,Konkan ,Eat_South Karnataka,wikivoyage,red,,,,"6th cross, 6th Block, Koramangala ", ,Mangalorean and Goan style cuisine.,"(12.9372774, 77.6266203)"
6,,,,,,12.9914249,77.5603922,,,Kodial's ,Eat_South Karnataka,wikivoyage,red,,,,8th Cross Malleswaram , ,For authentic vegetarian Konkani cuisine.,"(12.9914249, 77.5603922)"
7,,,,,,0.0,0.0,,,Kudla ,Eat_South Karnataka,wikivoyage,red,,,,"Ramanashree Comforts, Richmond Rd ",http://www.ramanashree.com/ ,"For seafood, serves excellent dishes.","(0, 0)"
8,,,,,,12.9979557,77.5624707,,,New Krishna Bhavan ,Eat_South Karnataka,wikivoyage,red,,,,1st Cross Malleswaram , ,"For authentic Mangalorean food, reasonably priced. Try the neer dosa and badam halwa.","(12.9979557, 77.5624707)"
9,,,,,,12.9749032,77.6052899,,,The Palms ,Eat_South Karnataka,wikivoyage,red,,,,33 Church St , ,"Mangalorean, Coorgi, and Malabari style. (shut for renovations)","(12.9749032, 77.6052899)"
10,,,,,,0.0,0.0,,,Upaahara Darshini ,Eat_South Karnataka,wikivoyage,red,,,,"Jayanagar 3rd Block; DVG Road, Gandhi Bazaar ", ,One of Bangalore's oldest food joints. Amazing dosas.,"(0, 0)"
11,,,,,,12.9450065,77.5714721,,,Vidyarthi Bhavan ,Eat_South Karnataka,wikivoyage,red,,,,32 Gandhi Bazaar , ,"Another very old and traditional breakfast place, exclusively known for its Masala Dosa. Similar to MTR, you can find people who have been having breakfast here since times immemorial.","(12.9450065, 77.5714721)"
0,,,,,,0.0,0.0,,,6 Ballygunge Place ,Eat_Bengali,wikivoyage,red,,,,"1st Fl., 612, 12th Main, Indira Nagar ", ,"It has been rated best Bengali restaurant by times food guide Bengaluru. It serves excellent fish (esp their chital peti roast), dab chingri and luchis. (Its mocktails are avoidable however). Prices are slightly on higher side. May cost around ₹1,000 for two but the food quality is good. The owners have also added Kolkata-style chaat on top floor.","(0, 0)"
1,,,,,,0.0,0.0,,,36 Chowringhee Lane ,Eat_Bengali,wikivoyage,red,,,,"100ft Rd, BTM Layout ", ,Authentic Bengali Cuisine.,"(0, 0)"
2,,,,,,0.0,0.0,,,Bangaliana ,Eat_Bengali,wikivoyage,red,,,,"355, 1st 'B' Main, 7th Block, Koramangala ", ,"Authentic Bengali Delicacies (Breakfast, Lunch and Dinner) Restaurant, Take-away, Catering. Specialities: fish, mutton chicken and, of course, sweets.","(0, 0)"
3,,,,,,0.0,0.0,,,Bhojohori Manna ,Eat_Bengali,wikivoyage,red,,,,"668/B 6th Block, Koramangala Club Rd ", ,Free home delivery,"(0, 0)"
4,,,,,,12.9844493,77.5342619,,,The Esplanade ,Eat_Bengali,wikivoyage,red,,,,KHB Colony , ,Offers authentic Bengali cuisine. They also have a continental menu.,"(12.9844493, 77.5342619)"
5,,,,,,12.9753805,77.6015772,,,Oh! Calcutta ,Eat_Bengali,wikivoyage,red,,,,St Mark's Rd , ,"Part of a chain of restaurants across the country, and the best Bengali food available in the city albeit pricier than the other options.","(12.9753805, 77.6015772)"
6,,,,,,0.0,0.0,,,Sonar Bangla ,Eat_Bengali,wikivoyage,red,,,,"88/1, Shubh Arcade, 1st floor, 16th Cross, Margosa Rd, Malleswaram ", ,"The restaurant undertakes orders of authentic Bengali food for gourmets who fancy a whole meal and also delivers it at the doorstep. Fish is considered sacred in the coastal state and is consumed universally. So, all fish lovers can take heart as the non-vegetarian cuisine is delivered, but not served at the restaurant.","(0, 0)"
0,,,,,,12.9756281,77.6023664,,,Bheemas ,Eat_Andhra,wikivoyage,red,,,,Church St , ,If you have the penchant for spice this place is meant for you.,"(12.9756281, 77.6023664)"
1,,,,,,0.0,0.0,,,Nagarjuna Chimney ,Eat_Andhra,wikivoyage,red,,,,Residency Rd; Jayanagar 3rd Block , ,"Possibly have a few more branches elsewehere in Bangalore. The biryani is great, as are their meals which are served ritually on a banana leaf. Reach early for lunch, for there are always hordes waiting.","(0, 0)"
2,,,,,,0.0,0.0,,,R₹ ,Eat_Andhra,wikivoyage,red,,,,off Brigade Rd , ,"A renovation of the vintage R₹, the fun doubles here with the double storeyed restaurant, one serving Andhra and the other Hyderabadi cuisines. There's also alcohol, all the more reason to indulge on a Saturday afternoon.","(0, 0)"
0,,,,,,0.0,0.0,,,Anjappar Restaurant ,Eat_Tamil,wikivoyage,red,,,,"#50, 100 Ft. Road, 4th Block Kormangala ", ,Chettinad cuisine,"(0, 0)"
1,,,,,,12.9962979,77.5452778,,,Annachi ,Eat_Tamil,wikivoyage,red,,,,"100 Ft. Road, Indiranagar ", ,Serves vegetarian and non-vegetarian food. Has some good chettinad style dishes.,"(12.9962979, 77.5452778)"
2,,,,,,12.9778793,77.6246697,,,Annapoorna ,Eat_Tamil,wikivoyage,red,,,,Ulsoor , ,Pure vegetarian food in Tamil style.,"(12.9778793, 77.6246697)"
3,,,,,,12.9581638,77.641321,,,Krishna Kafe ,Eat_Tamil,wikivoyage,red,,,,Koramangala , ,"Traditional Chennai-style food. Dosas, idlis, idiyappam and the like with authentic Tamil sambar and chutney. This place is vegetarian-only. A vegetarian meal will cost you around ₹80.","(12.9581638, 77.641321)"
4,,,,,,0.0,0.0,,,Pongal ,Eat_Tamil,wikivoyage,red,,,,Jivan Bima Nagar , ,"Tamil Nadu food. Lots of dosa varieties, Podi dosa, parotta with kurma are good. Ambience is not that great, but this place is for those who need a quick bite without a big pinch on the wallet.","(0, 0)"
5,,,,,,12.9581638,77.641321,,,Ponnuswamy ,Eat_Tamil,wikivoyage,red,,,,Koramangala , ,"Authentic south Tamil nadu food. Try the biryani and sukka fry. No alcohol or smoking. Also at Residency Rd., next to Imperial Hotel.","(12.9581638, 77.641321)"
0,,,,,,0.0,0.0,,,Corner House ,Eat_Ice Cream Parlours,wikivoyage,red,,,,1 Airport Rd; All around the city ,https://www.facebook.com/cornerhouseicecreams/ ,"Carlton Towers. This is the place for foodies looking for the best desserts in town. The ""brown bomb"" and ""hot fudge"" are a must have. Not a place for calorie counters.","(0, 0)"
1,,,,,,0.0,0.0,,,ibaco ,Eat_Ice Cream Parlours,wikivoyage,red,,,,Basavanagudi; Basaveshwara Nagar; BTM Layout; Coles Road; Indira Nagar; Jayanagar; Koramangala; Mantri Square; Phoenix Mall; RR Nagar; Wood Street; Yelahanka ,http://www.hatsun.com/ibaco/ ,,"(0, 0)"
2,,,,,,0.0,0.0,,,Naturals Ice Cream ,Eat_Ice Cream Parlours,wikivoyage,red,,,,"Indiranagar; Koramangala; Sarjapur; Dollars Colony, RMV Extension; St. Marks Road; Jayanagar; Basaveshwaranagar; Frazer Town; Malleshwaram; Arekere ",http://www.naturalicecreams.in/ ,,"(0, 0)"
3,,,,,,12.9671257,77.6078908,,,Pabrai's Fresh and Naturalle Ice Cream ,Eat_Ice Cream Parlours,wikivoyage,red,,,,"Wood Street, Ashok Nagar ", ,,"(12.9671257, 77.6078908)"
4,,,,,,0.0,0.0,,,Phalaamritha Ice Cream Parlour ,Eat_Ice Cream Parlours,wikivoyage,red,,,,"8th Cross, 14/1 West Park Road,Malleswaram ", ,"Serves 25 super smooth home-made ice cream flavours along with health drinks, varieties of kulfis, milk shakes, ice tea, ice cream, novelties and chaats.","(0, 0)"
5,,,,,,0.0,0.0,,,Richie Rich Ice Cream Parlour ,Eat_Ice Cream Parlours,wikivoyage,red,,,, , ,"Three branches around the city, with a variety of natural ice creams, softies and many fast food items such as pav bhaji and vada pav.. Try the 'Elvis Presley' specialty or the traffic jam or 'Richie Rich' special. The 3 locations are on St. Marks Rd, Airport Rd. and Kumara Park East.","(0, 0)"
6,,,,,,0.0,0.0,,,Swensen's ,Eat_Ice Cream Parlours,wikivoyage,red,,,,"Mantri Square, Malleshwaram; 80 ft. Road, Koramangala; 60 ft. Road, Sahakara Nagar; Ascendas Park Square Mall, Whitefield; Bangalore Central, Bellandur; BDA Complex, HSR Layout; J.P.Nagar (Marenhalli); Jayanagar ",https://www.facebook.com/SwensensIndia/ ,The ultimate sundae experience.,"(0, 0)"
7,,,,,,12.9186965,77.5541702,,,Yogi's ,Eat_Ice Cream Parlours,wikivoyage,red,,,,"#86, 21st Main, Banashankari 2nd Stage ", ,"The ""Sakkat Burger"" and ""Sakkat Mexican"" are a must have. Wide range of burgers, sandwiches, ice creams, shakes and sundaes available.","(12.9186965, 77.5541702)"
0,,,,,,0.0,0.0,,,Bay Leaf ,Eat_North Indian,wikivoyage,red,,,,"Raheja Arcade, opposite Forum Mall, Kormangala ", ,A really nice place with reasonable prices.,"(0, 0)"
1,,,,,,0.0,0.0,,,Grameen ,Eat_North Indian,wikivoyage,red,,,,"Raheja Arcade, opposite Forum Mall, Kormangala ", ,One of the best places to have good vegetarian North Indian food.,"(0, 0)"
2,,,,,,0.0,0.0,,,Hyderabadi biriyani ,Eat_North Indian,wikivoyage,red,,,,Banerghatta Rd , ,Serves good biriyani,"(0, 0)"
3,,,,,,0.0,0.0,,,Mast Kalandar ,Eat_North Indian,wikivoyage,red,,,,All around the city , ,Very nice North India cuisine. It is very reasonably priced.,"(0, 0)"
4,,,,,,0.0,0.0,,,Queens ,Eat_North Indian,wikivoyage,red,,,,"Church Street, opposite Amoeba ", ,Small restaurant but great food at reasonable prices.,"(0, 0)"
5,,,,,,0.0,0.0,,,Rasilas ,Eat_North Indian,wikivoyage,red,,,,"JP Nagar 7 Phase, Shreyas Colony ", ,Nice place with very fine cuisine.,"(0, 0)"
6,,,,,,12.98000485,77.58610480115465,,,Tijouri ,Eat_North Indian,wikivoyage,red,,,,"Hotel Atria, Palace Rd ", ,,"(12.98000485, 77.58610480115465)"
7,,,,,,0.0,0.0,,,--,Eat_North Indian,wikivoyage,red,,,,,,,"(0, 0)"
0,,,,,,0.0,0.0,,,100 ft Boutique ,Eat_Italian,wikivoyage,red,,,,"100 Foot Rd, Indira nagar ", ,"Comparable to most continental resto-bars. The best part about it is that its a Boutique Restaurant, which means you can shop, while waiting for your meal to arrive, even after 9PM, which is when most other shops close in Banglaore. The Boutique houses many young designers. ''Levitate'', showcases a wide array of eclectic street fashion and handcrafted kitsch from all over India.","(0, 0)"
1,,,,,,0.0,0.0,,,I-Talia ,Eat_Italian,wikivoyage,red,,,,"The Park, MG Rd ", ,"Expensive, but arguably the best Italian food in town.","(0, 0)"
2,,,,,,12.9962979,77.5452778,,,Italia (''previously Little Italy'') ,Eat_Italian,wikivoyage,red,,,,Indiranagar , ,"Nice vegetarian restaurant in Indira Nagar, a little expensive. Good food.","(12.9962979, 77.5452778)"
3,,,,,,12.9581638,77.641321,,,Via Milano ,Eat_Italian,wikivoyage,red,,,,Koramangala , ,"Authentic Italian food. 3 course meal for 2 will cost an average of ₹2,000, (wine not included).","(12.9581638, 77.641321)"
0,,,,,,0.0,0.0,,,Beijing Bites ,Eat_Chinese,wikivoyage,red,,,, ,http://beijingbites.com/ ,"Chain restaurant inspired by Chinese & Thai cuisines, spread across Bangalore.","(0, 0)"
1,,,,,,0.0,0.0,,,Caesar's Multi Cuisine Restaurant ,Eat_Chinese,wikivoyage,red,,,,"Mahalakshmi Chambers, 9/2, MG Rd. ", ,Variety of tasty food. Classic environment.,"(0, 0)"
2,,,,,,0.0,0.0,,,Golden Lights ,Eat_Chinese,wikivoyage,red,,,,"No.4032, 100ft Rd, HAL-II Stage, Indranagar ", ,,"(0, 0)"
3,,,,,,0.0,0.0,,,Shanghai Junction ,Eat_Chinese,wikivoyage,red,,,,"No.8, Sri Sai, 60 Foot. Rd, G Block, Sahakarnagar ", ,,"(0, 0)"
4,,,,,,0.0,0.0,,,Mainland China ,Eat_Chinese,wikivoyage,red,,,,Church St; 100 Foot Rd. Indiranagar , ,,"(0, 0)"
5,,,,,,12.9337035,77.619147,,,P!ing ,Eat_Chinese,wikivoyage,red,,,,"No. 130, 1st Cross, 5th Block, Koramangala ", ,"Includes a dessert bay. Dim sum, sensible portions, good prices.","(12.9337035, 77.619147)"
0,,,,,,12.9438988,77.5968766,,,"BigBoy Fried Chicken, (BFC) ",Eat_Kerala,wikivoyage,red,,,,Vignan Nagar , ,,"(12.9438988, 77.5968766)"
1,,,,,,12.9756281,77.6023664,,,Coconut Grove ,Eat_Kerala,wikivoyage,red,,,,Church Street , ,,"(12.9756281, 77.6023664)"
2,,,,,,13.1992063,77.7116169,,,Continental Spice ,Eat_Kerala,wikivoyage,red,,,,Airport Rd , ,,"(13.1992063, 77.7116169)"
3,,,,,,12.974779,77.6654084,,,Gokulam Mess ,Eat_Kerala,wikivoyage,red,,,,GM Palya , ,,"(12.974779, 77.6654084)"
4,,,,,,12.9846713,77.6790908,,,Hotel New Malabar ,Eat_Kerala,wikivoyage,red,,,,Kaggadasapura , ,,"(12.9846713, 77.6790908)"
5,,,,,,12.9717438,77.6815882,,,Hotel Ruchi ,Eat_Kerala,wikivoyage,red,,,,Vignana Nagar , ,,"(12.9717438, 77.6815882)"
6,,,,,,0.0,0.0,,,K K Bakers ,Eat_Kerala,wikivoyage,red,,,,Malleshpalaya , ,,"(0, 0)"
7,,,,,,0.0,0.0,,,Kaayal ,Eat_Kerala,wikivoyage,red,,,,AECS Layout; Jeevan Bhima Nagar , ,,"(0, 0)"
8,,,,,,0.0,0.0,,,Kairali ,Eat_Kerala,wikivoyage,red,,,,"Near Forum Mall, Koramangala ", ,,"(0, 0)"
9,,,,,,12.9717438,77.6815882,,,Kalavara ,Eat_Kerala,wikivoyage,red,,,,Vignana Nagar , ,,"(12.9717438, 77.6815882)"
10,,,,,,12.9624669,77.6381958,,,Kerala Pavilion ,Eat_Kerala,wikivoyage,red,,,,Domlur , ,Authentic Kerala food,"(12.9624669, 77.6381958)"
11,,,,,,0.0,0.0,,,Little Home ,Eat_Kerala,wikivoyage,red,,,,"80 ft. Road, Koramangala ", ,Very good south and central Kerala food. Bad service though.,"(0, 0)"
12,,,,,,12.9581638,77.641321,,,The Paramount Restaurant ,Eat_Kerala,wikivoyage,red,,,,Koramangala , ,,"(12.9581638, 77.641321)"
13,,,,,,12.9682545,77.6648221,,,Priyam Restaurant ,Eat_Kerala,wikivoyage,red,,,,Jagadish Nagar , ,,"(12.9682545, 77.6648221)"
14,,,,,,12.9014031,77.6324336,,,Tharavadu ,Eat_Kerala,wikivoyage,red,,,,"Bommanahalli, Hosur Rd ", ,,"(12.9014031, 77.6324336)"
15,,,,,,0.0,0.0,,,Vayal ,Eat_Kerala,wikivoyage,red,,,,Outer ring road (around Central mall) , ,,"(0, 0)"
0,,,,,,0.0,0.0,,,--,Eat_Dhabas,wikivoyage,red,,,,,,,"(0, 0)"
1,,,,,,12.98369,77.61391,,,Bobby-da-Dhaba ,Eat_Dhabas,wikivoyage,red,,,,"Near Lavanya Theatre, St John's Road, Near Ulsoor ", ,"The food is good (albeit slightly oily). It basically serves paranthas (with lots of butter), chaach, kheer and a number of side dishes (most notable being their shahi paneer and rajma). You may have to wait for a while in case it is full. So it's better to go slightly early, noon for lunch and 7:30PM for dinner to avoid rush).","(12.98369, 77.61391)"
2,,,,,,12.9977197,77.6219019,,,Manjit ka Dhaba ,Eat_Dhabas,wikivoyage,red,,,,"107, 1st Floor, Wheeler Road, Near Railway Cross, Cox Town, Frazer Town ", ,Budget dhaba. Tasty parathas (with butter) and couple of assorted vegetable curry options. Lassi. Dont expect ambience in dhabas.,"(12.9977197, 77.6219019)"
0,,,,,,0.0,0.0,,,--,Drink,wikivoyage,red,,,,,,,"(0, 0)"
1,,,,,,0.0,0.0,,,--,Drink,wikivoyage,red,,,,,,,"(0, 0)"
2,,,,,,0.0,0.0,,,--,Drink,wikivoyage,red,,,,,,,"(0, 0)"
3,,,,,,0.0,0.0,,,--,Drink,wikivoyage,red,,,,,,,"(0, 0)"
4,,,,,,0.0,0.0,,,--,Drink,wikivoyage,red,,,,,,,"(0, 0)"
0,,,,,,0.0,0.0,,,Barista Lavazza ,Drink_Cafes,wikivoyage,red,,,, ,http://www.barista.co.in/ ,"An Indian startup cafe chain established in 1997 and more commonly known as Barista and now owned by Lavazza. The chain has more than 200 stores in India. It is found all over Bangalore with 32 retail outlets, most of them near IT corporate offices.","(0, 0)"
1,,,,,,12.9713,77.60712,,,Café Coffee Day ,Drink_Cafes,wikivoyage,red,,,, ,http://www.cafecoffeeday.com ,"Popularly known as CCD. Established in 1996, at Brigade Road, Bangalore, the chain has over 1,000 cafes throughout India. It is found all over Bangalore.","(12.9713, 77.60712)"
2,,,,,,0.0,0.0,,,Caffe Pascucci ,Drink_Cafes,wikivoyage,red,,,,"690/A, 15 Cross Road, 14th Main Road, Phase II, J P Nagar ",https://www.facebook.com/Cafe-Pascucci-Bangalore-57902917850/ ,"Italian coffee chain brand. In 2010, Pascucci set up its own coffee retail shop in India with 10 outlets in Bangalore at prominent localities like Jayanagar, JP Nagar, MG Road, Malleshwaram and Indiranagar.","(0, 0)"
3,,,,,,0.0,0.0,,,Cake Walk ,Drink_Cafes,wikivoyage,red,,,,"#297, 100 Feet Rd, Indra Nagar ",http://www.cakewalk.co.in/ ,,"(0, 0)"
4,,,,,,0.0,0.0,,,Coffee Workers Co-op ,Drink_Cafes,wikivoyage,red,,,,Church St's Brigade Gardens , ,"A venerable Bangalore institution, with waiters in traditional uniforms and customers slowly savoring the age-old tradition of coffee drinking - though there are just two choices of coffee: black or white. Have some delightful ""masala dosa"" here.","(0, 0)"
5,,,,,,0.0,0.0,,,Coffee World ,Drink_Cafes,wikivoyage,red,,,, ,https://www.facebook.com/CoffeeWorldIndia/ ,Can be found all over Bangalore.,"(0, 0)"
6,,,,,,0.0,0.0,,,Costa Coffee ,Drink_Cafes,wikivoyage,red,,,, ,http://www.costacoffee.co.in ,"British coffeehouse chain. Koramangala 4th Block, in Indranagar and another opposite Goethe-Institut, RMZ Eco Space on Sarjapur Rd and Sigma Mall, Brookesfield, Cunningham Rd, JNC Rd, and Jayanagar. Besides Coffee, Costa lays heavy emphasis on food with sandwiches, paninis, tostatos, pastas, many kinds of desserts, English muffins, and a wide variety of cakes.","(0, 0)"
7,,,,,,12.9756281,77.6023664,,,Java City ,Drink_Cafes,wikivoyage,red,,,,Church St. , ,"Pleasant old Bangalore atmosphere. Offers a wide variety of tea, coffee from all over the world including pizza, pasta, pastries, cookies, you name it they have it plus you get to see a unique sense of humor in their menu and on the walls. On Saturday and Sunday evenings, there is live music, rock and guitar. This place is simple, expatriate friendly and not at all pricy. There is another Java City near Lavelle Road.","(12.9756281, 77.6023664)"
8,,,,,,0.0,0.0,,,Travel on Menu Café ,Drink_Cafes,wikivoyage,red,,,, ,https://www.facebook.com/travelonmenuthecafe?ref,Popular for TOM Coffee.,"(0, 0)"
0,,,,,,12.9962979,77.5452778,,,"Beer Joint Pub, (aka BJP) ",Drink_Pubs and bars,wikivoyage,red,,,,Indiranagar , ,,"(12.9962979, 77.5452778)"
1,,,,,,12.969986200000001,77.60969525296483,,,Bull n Bush ,Drink_Pubs and bars,wikivoyage,red,,,,"4th floor, Garuda Mall ", ,"Plays hip hop, house and occasionally trance.","(12.969986200000001, 77.60969525296483)"
2,,,,,,12.9756281,77.6023664,,,Carpe Diem ,Drink_Pubs and bars,wikivoyage,red,,,,Church St , ,It's a Power Metal haven.,"(12.9756281, 77.6023664)"
3,,,,,,0.0,0.0,,,Ego's ,Drink_Pubs and bars,wikivoyage,red,,,,"Castle Street, off Brigade Rd ", ,,"(0, 0)"
4,,,,,,0.0,0.0,,,J'Cubez ,Drink_Pubs and bars,wikivoyage,red,,,,"Banashankari 2nd Stage, opp. BDA complex ", ,For rock lovers,"(0, 0)"
5,,,,,,0.0,0.0,,,Jimi's ,Drink_Pubs and bars,wikivoyage,red,,,,"Residency Road, Koramangala 80ft. Rd ", ,A nice dark cozy bar along with Rock music and video. Best visited during weekends and is not hard on your pocket.,"(0, 0)"
6,,,,,,12.9720923,77.6051414,,,Le Rock Pub Cafe ,Drink_Pubs and bars,wikivoyage,red,,,,Rest House Rd , ,"The latest watering hole in Bangalore. Rock music across the board screened on large plasma panels; every song can not only be heard but seen as well. Coffee, Kingfisher beer, cocktails, food and Bangalore's first oxy bar.","(12.9720923, 77.6051414)"
7,,,,,,0.0,0.0,,,Legends of Rock ,Drink_Pubs and bars,wikivoyage,red,,,,"80 Foot Rd, 6th Block, Koramangala ", ,Watch the Legends perform on large format TVs.,"(0, 0)"
8,,,,,,12.9581638,77.641321,,,Olio ,Drink_Pubs and bars,wikivoyage,red,,,,Koramangala , ,"Great ambiance with beer, wines and continental food.","(12.9581638, 77.641321)"
9,,,,,,0.0,0.0,,,Opus ,Drink_Pubs and bars,wikivoyage,red,,,,"Palace Cross Road, near Sankey Rd ",http://opusbangalore.blogspot.com/ ,"A chilled-out, ex-pat friendly lounge with a large outdoor space. Has karaoke on most Su and W (Kroaknights) as well as regular live music and DJ dance nights. You may need to book ahead on theme nights.","(0, 0)"
10,,,,,,12.9756281,77.6023664,,,Nasa ,Drink_Pubs and bars,wikivoyage,red,,,,Church St , ,,"(12.9756281, 77.6023664)"
11,,,,,,0.0,0.0,,,New Night Watchman ,Drink_Pubs and bars,wikivoyage,red,,,,Corner of Church Street and Museum Rd , ,Little bit dingy but helpful bar staff - satellite TV has the Australia Network so you can watch Rugby Union and AFL games.,"(0, 0)"
12,,,,,,12.97373,77.60717,,,Pecos ,Drink_Pubs and bars,wikivoyage,red,,,,Rest House Rd (''Off Brigade Road'') ,https://www.facebook.com/PECOS.Pubs ,"60s retro pub with a mural of Jerry Garcia. Often crowded on all 3 floors, including the pleasant roof-top seating area. Free popcorn with every pitcher of beer. Cards are available for frequent customers which make every tenth pitcher of beer free, but you may have to ask several times in order to acquire one and to get it updated.","(12.97373, 77.60717)"
13,,,,,,0.0,0.0,,,Purple Haze ,Drink_Pubs and bars,wikivoyage,red,,,,"Residency Road, Koramangala (close to Jyothi Niwas College) ", ,Popular for the classic rock that's played there.,"(0, 0)"
14,,,,,,0.0,0.0,,,Sparks ,Drink_Pubs and bars,wikivoyage,red,,,,"Briage Road Extension, next to Brigade Towers ", ,,"(0, 0)"
15,,,,,,0.0,0.0,,,Styx ,Drink_Pubs and bars,wikivoyage,red,,,, , ,"They put the ""Heavy"" in heavy metal!","(0, 0)"
16,,,,,,12.969986200000001,77.60969525296483,,,Sultanate of Swing ,Drink_Pubs and bars,wikivoyage,red,,,,"4th floor, Garuda Mall ", ,"Mainly plays Rock, Retro, Heavy Metal and has a Video DJ.","(12.969986200000001, 77.60969525296483)"
17,,,,,,0.0,0.0,,,Take 5 ,Drink_Pubs and bars,wikivoyage,red,,,,"54, MSK Plaza, HAL II Stage Indiranagar ", ,A Jazz themed restaurant that serves great American style food and offers a large selection of beers. They don't always play jazz but the food and drink is consistently good.,"(0, 0)"
18,,,,,,12.9724769,77.603947,,,Tavern at The Inn ,Drink_Pubs and bars,wikivoyage,red,,,,Museum Rd , ,,"(12.9724769, 77.603947)"
19,,,,,,0.0,0.0,,,The Bunker ,Drink_Pubs and bars,wikivoyage,red,,,,off Residency Rd , ,,"(0, 0)"
20,,,,,,0.0,0.0,,,Windsor Pub ,Drink_Pubs and bars,wikivoyage,red,,,,Vasanth Nagar (''off Mount Carmel's in Kodava Samaja Building'') , ,"A small place which serves only beer, good food and is nice for a family outing. But only limited tables.","(0, 0)"
21,,,,,,0.0,0.0,,,Zeus ,Drink_Pubs and bars,wikivoyage,red,,,,"#174 2nd Floor Manohar Crest, Brigade Rd ", ,Sports bar and lounge.,"(0, 0)"
0,,,,,,0.0,0.0,,,--,Drink_Pubs and bars_Budget,wikivoyage,red,,,,,,,"(0, 0)"
0,,,,,,12.9962979,77.5452778,,,"Beer Joint Pub, (aka BJP) ",Drink_Pubs and bars_Mid-range,wikivoyage,red,,,,Indiranagar , ,,"(12.9962979, 77.5452778)"
1,,,,,,12.969986200000001,77.60969525296483,,,Bull n Bush ,Drink_Pubs and bars_Mid-range,wikivoyage,red,,,,"4th floor, Garuda Mall ", ,"Plays hip hop, house and occasionally trance.","(12.969986200000001, 77.60969525296483)"
2,,,,,,12.9756281,77.6023664,,,Carpe Diem ,Drink_Pubs and bars_Mid-range,wikivoyage,red,,,,Church St , ,It's a Power Metal haven.,"(12.9756281, 77.6023664)"
3,,,,,,0.0,0.0,,,Ego's ,Drink_Pubs and bars_Mid-range,wikivoyage,red,,,,"Castle Street, off Brigade Rd ", ,,"(0, 0)"
4,,,,,,0.0,0.0,,,J'Cubez ,Drink_Pubs and bars_Mid-range,wikivoyage,red,,,,"Banashankari 2nd Stage, opp. BDA complex ", ,For rock lovers,"(0, 0)"
5,,,,,,0.0,0.0,,,Jimi's ,Drink_Pubs and bars_Mid-range,wikivoyage,red,,,,"Residency Road, Koramangala 80ft. Rd ", ,A nice dark cozy bar along with Rock music and video. Best visited during weekends and is not hard on your pocket.,"(0, 0)"
6,,,,,,12.9720923,77.6051414,,,Le Rock Pub Cafe ,Drink_Pubs and bars_Mid-range,wikivoyage,red,,,,Rest House Rd , ,"The latest watering hole in Bangalore. Rock music across the board screened on large plasma panels; every song can not only be heard but seen as well. Coffee, Kingfisher beer, cocktails, food and Bangalore's first oxy bar.","(12.9720923, 77.6051414)"
7,,,,,,0.0,0.0,,,Legends of Rock ,Drink_Pubs and bars_Mid-range,wikivoyage,red,,,,"80 Foot Rd, 6th Block, Koramangala ", ,Watch the Legends perform on large format TVs.,"(0, 0)"
8,,,,,,12.9581638,77.641321,,,Olio ,Drink_Pubs and bars_Mid-range,wikivoyage,red,,,,Koramangala , ,"Great ambiance with beer, wines and continental food.","(12.9581638, 77.641321)"
9,,,,,,0.0,0.0,,,Opus ,Drink_Pubs and bars_Mid-range,wikivoyage,red,,,,"Palace Cross Road, near Sankey Rd ",http://opusbangalore.blogspot.com/ ,"A chilled-out, ex-pat friendly lounge with a large outdoor space. Has karaoke on most Su and W (Kroaknights) as well as regular live music and DJ dance nights. You may need to book ahead on theme nights.","(0, 0)"
10,,,,,,12.9756281,77.6023664,,,Nasa ,Drink_Pubs and bars_Mid-range,wikivoyage,red,,,,Church St , ,,"(12.9756281, 77.6023664)"
11,,,,,,0.0,0.0,,,New Night Watchman ,Drink_Pubs and bars_Mid-range,wikivoyage,red,,,,Corner of Church Street and Museum Rd , ,Little bit dingy but helpful bar staff - satellite TV has the Australia Network so you can watch Rugby Union and AFL games.,"(0, 0)"
12,,,,,,12.97373,77.60717,,,Pecos ,Drink_Pubs and bars_Mid-range,wikivoyage,red,,,,Rest House Rd (''Off Brigade Road'') ,https://www.facebook.com/PECOS.Pubs ,"60s retro pub with a mural of Jerry Garcia. Often crowded on all 3 floors, including the pleasant roof-top seating area. Free popcorn with every pitcher of beer. Cards are available for frequent customers which make every tenth pitcher of beer free, but you may have to ask several times in order to acquire one and to get it updated.","(12.97373, 77.60717)"
13,,,,,,0.0,0.0,,,Purple Haze ,Drink_Pubs and bars_Mid-range,wikivoyage,red,,,,"Residency Road, Koramangala (close to Jyothi Niwas College) ", ,Popular for the classic rock that's played there.,"(0, 0)"
14,,,,,,0.0,0.0,,,Sparks ,Drink_Pubs and bars_Mid-range,wikivoyage,red,,,,"Briage Road Extension, next to Brigade Towers ", ,,"(0, 0)"
15,,,,,,0.0,0.0,,,Styx ,Drink_Pubs and bars_Mid-range,wikivoyage,red,,,, , ,"They put the ""Heavy"" in heavy metal!","(0, 0)"
16,,,,,,12.969986200000001,77.60969525296483,,,Sultanate of Swing ,Drink_Pubs and bars_Mid-range,wikivoyage,red,,,,"4th floor, Garuda Mall ", ,"Mainly plays Rock, Retro, Heavy Metal and has a Video DJ.","(12.969986200000001, 77.60969525296483)"
17,,,,,,0.0,0.0,,,Take 5 ,Drink_Pubs and bars_Mid-range,wikivoyage,red,,,,"54, MSK Plaza, HAL II Stage Indiranagar ", ,A Jazz themed restaurant that serves great American style food and offers a large selection of beers. They don't always play jazz but the food and drink is consistently good.,"(0, 0)"
18,,,,,,12.9724769,77.603947,,,Tavern at The Inn ,Drink_Pubs and bars_Mid-range,wikivoyage,red,,,,Museum Rd , ,,"(12.9724769, 77.603947)"
19,,,,,,0.0,0.0,,,The Bunker ,Drink_Pubs and bars_Mid-range,wikivoyage,red,,,,off Residency Rd , ,,"(0, 0)"
20,,,,,,0.0,0.0,,,Windsor Pub ,Drink_Pubs and bars_Mid-range,wikivoyage,red,,,,Vasanth Nagar (''off Mount Carmel's in Kodava Samaja Building'') , ,"A small place which serves only beer, good food and is nice for a family outing. But only limited tables.","(0, 0)"
21,,,,,,0.0,0.0,,,Zeus ,Drink_Pubs and bars_Mid-range,wikivoyage,red,,,,"#174 2nd Floor Manohar Crest, Brigade Rd ", ,Sports bar and lounge.,"(0, 0)"
0,,,,,,0.0,0.0,,,13th Floor ,Drink_Pubs and bars_Splurge,wikivoyage,red,,,,"Barton Centre, MG Rd ", ,Make a reservation. amazing view from the 13th floor,"(0, 0)"
1,,,,,,12.97027,77.61089,,,Arbor Brewing Company ,Drink_Pubs and bars_Splurge,wikivoyage,red,,,,"8 Magrath Rd, Allied Grande Plaza, Ashok Nagar ",https://www.arborbrewing.in/ ,"Microbrewery that serves Belgian Triple, Smooth Criminal and Brassiere Blonde. Some of the smoothest beers in town and serves pub-style food. Has a nice vibe though it gets crowded during the weekend.","(12.97027, 77.61089)"
2,,,,,,12.985592,77.5961566,,,Aura ,Drink_Pubs and bars_Splurge,wikivoyage,red,,,,Cunningham Rd , ,,"(12.985592, 77.5961566)"
3,,,,,,0.0,0.0,,,Athena ,Drink_Pubs and bars_Splurge,wikivoyage,red,,,,"The Leela Hotel, Airport Rd ", ,"Really popular on most days of the week. The upper VIP lounge is the best part of the club, but the rest of the club is beautifully appointed and attracts a hip crowd.","(0, 0)"
4,,,,,,0.0,0.0,,,Barleyz - The Brew House ,Drink_Pubs and bars_Splurge,wikivoyage,red,,,,"Above Taco Bell, Sony World signal, Koramangala ", ,Microbrewery,"(0, 0)"
5,,,,,,12.98547275,77.58451596985077,,,Blue Bar ,Drink_Pubs and bars_Splurge,wikivoyage,red,,,,"West End, Race Course Rd ", ,Excellent drinks if you make sure Joel makes them. Officially they have a couple's only policy. Spontaneous dancing likely next to the bar.,"(12.98547275, 77.58451596985077)"
6,,,,,,0.0,0.0,,,F-Bar ,Drink_Pubs and bars_Splurge,wikivoyage,red,,,,"Le Meridien, Sankey Rd ", ,Fashion Bar is a theme bar by FTV,"(0, 0)"
7,,,,,,12.9626925,77.6041603,,,Fuga ,Drink_Pubs and bars_Splurge,wikivoyage,red,,,,Richmond Town , ,The best place for house music lovers. Expensive and fashionable.,"(12.9626925, 77.6041603)"
8,,,,,,12.9351034,77.611625,,,Firangi Paani ,Drink_Pubs and bars_Splurge,wikivoyage,red,,,,"Forum Mall, Koramangala ", ,,"(12.9351034, 77.611625)"
9,,,,,,0.0,0.0,,,Geoffrey's ,Drink_Pubs and bars_Splurge,wikivoyage,red,,,,"Royal Orchid, Airport Rd ", ,Really nice place,"(0, 0)"
10,,,,,,0.0,0.0,,,Hint ,Drink_Pubs and bars_Splurge,wikivoyage,red,,,,"5th Floor, Bangalore Central, MG Rd ", ,Tuesdays is ladies night (couples permitted).,"(0, 0)"
11,,,,,,0.0,0.0,,,iBar ,Drink_Pubs and bars_Splurge,wikivoyage,red,,,,"Park Hotel, MG Rd ", ,,"(0, 0)"
12,,,,,,0.0,0.0,,,Kosmo (Formerly Cosmo Village) ,Drink_Pubs and bars_Splurge,wikivoyage,red,,,,81 Ali Askar Road Cross (''Off Cunningham Road'') , ,"3 separate areas including a terrace. This nightclub is a remodeled colonial villa on a quiet lane, with excellent DJs and expensive drinks, and attracts a wealthy clientele.","(0, 0)"
13,,,,,,0.0,0.0,,,Taika ,Drink_Pubs and bars_Splurge,wikivoyage,red,,,,Church St. (''Off Brigade Rd'') , ,Usually open past midnight and has a huge dance floor. 3 bars and a lounge area. Entrance varies each night.,"(0, 0)"
14,,,,,,0.0,0.0,,,The Beach ,Drink_Pubs and bars_Splurge,wikivoyage,red,,,,100 Foot Rd , ,"Indiranagar. Make a reservation. Starts with retro music, plays some good hip-hop and house towards the end. Makes you feel like you are in Goa.","(0, 0)"
15,,,,,,0.0,0.0,,,The Biere Club ,Drink_Pubs and bars_Splurge,wikivoyage,red,,,,"Vittal Mallya Rd on Lavelle Road, (''opp Sunny's''). ", ,Bangalore’s first craft brewery and a popular place for beer lovers.,"(0, 0)"
16,,,,,,12.9962979,77.5452778,,,Toit ,Drink_Pubs and bars_Splurge,wikivoyage,red,,,,Indiranagar , ,Microbrewery,"(12.9962979, 77.5452778)"
17,,,,,,0.0,0.0,,,Vaayu ,Drink_Pubs and bars_Splurge,wikivoyage,red,,,,"5th floor, Eve Mall, Brigade Rd ", ,"It has comfortable lounge seating, and is open air, giving some nice views over the city.","(0, 0)"
18,,,,,,0.0,0.0,,,Windmills Craftworks ,Drink_Pubs and bars_Splurge,wikivoyage,red,,,,"#331, Road 5B, EPIP Zone, Whitefield ",http://windmillscraftworks.com/ ,Microbrewery,"(0, 0)"
19,,,,,,0.0,0.0,,,--,Drink_Pubs and bars_Splurge,wikivoyage,red,,,,,,,"(0, 0)"
0,,,,,,0.0,0.0,,,Balaji Residency ,Sleep,wikivoyage,red,,,,"First Cross Rd, Behind RTO, L N Colony, Yeswanthpur ", ,,"(0, 0)"
1,,,,,,0.0,0.0,,,Bangalore Residency ,Sleep,wikivoyage,red,,,, , ,Lift facility. Party hall attached.,"(0, 0)"
2,,,,,,12.9650246,77.5700688,,,Hotel Naveen ,Sleep,wikivoyage,red,,,,Cottonpet Main Road , ,Near Sri Krishna Vaibhava Restaurant.,"(12.9650246, 77.5700688)"
3,,,,,,0.0,0.0,,,Manjunatha Paradise Delux Inn ,Sleep,wikivoyage,red,,,,"First Main, Cottonpet ", ,,"(0, 0)"
4,,,,,,12.9745748,77.5705062,,,Sri Gajanana Lodge ,Sleep,wikivoyage,red,,,,Cottonpete Main Road , ,,"(12.9745748, 77.5705062)"
5,,,,,,0.0,0.0,,,Kamat Hotel ,Sleep,wikivoyage,red,,,,"227, Lalbagh West Gate R.V.Road, VV.Puram ", ,,"(0, 0)"
6,,,,,,12.9804534,77.6038789,,,Citizen Lodge ,Sleep,wikivoyage,red,,,,Lady Curzon Rd , ,Bare bones motel-style establishment is well located but leaves much to be desired in terms of cleanliness and overall quality.,"(12.9804534, 77.6038789)"
7,,,,,,0.0,0.0,,,FabHotel 29th Church's Inn ,Sleep,wikivoyage,red,,,,"#29th Church Street, off M.G. Road ",https://www.fabhotels.com/hotels-in-bangalore/fabhotel-29th-church-inn-mg-road.html ,,"(0, 0)"
8,,,,,,0.0,0.0,,,Address 24 Inn ,Sleep,wikivoyage,red,,,,"#54, Hebbal Kempapura, Behind Esteem Mall, 560024 ",https://bangalores.best/stay/address-24-inn ,,"(0, 0)"
9,,,,,,0.0,0.0,,,Hotel Grand Park ,Sleep,wikivoyage,red,,,,"OTC Road, near Tavakal Mastan Dargah, Cottonpet, near Majestic ", ,,"(0, 0)"
10,,,,,,0.0,0.0,,,Manju Lodge ,Sleep,wikivoyage,red,,,,Near Abhinay Theatre& Menaka Theatre Hospital Road Avenue Road , ,,"(0, 0)"
11,,,,,,0.0,0.0,,,Naga Residency ,Sleep,wikivoyage,red,,,,"OTC Road, near Tavakal Mastan Dargah, Cottonpet, near Majestic ", ,,"(0, 0)"
12,,,,,,0.0,0.0,,,Omshakthi palace ,Sleep,wikivoyage,red,,,,"OTC Road, near Tavakal Mastan Dargah, Cottonpet, near Majestic ", ,,"(0, 0)"
13,,,,,,0.0,0.0,,,Railway Retirement Room ,Sleep,wikivoyage,red,,,, , ,,"(0, 0)"
14,,,,,,0.0,0.0,,,Red Mount Lodge ,Sleep,wikivoyage,red,,,,"OTC Road, near Tavakkal Mastan Dargah, Cottonpet, near Majestic ", ,,"(0, 0)"
15,,,,,,12.9221357,77.5216694,,,Royal Regency Lodge ,Sleep,wikivoyage,red,,,,S. C. Rd ,http://www.royalregencylodge.com ,Clean rooms and convenient to the city’s local transports like the City bus station and the City Railway Station.,"(12.9221357, 77.5216694)"
16,,,,,,12.9771534,77.5784005,,,Shree Vaishnav Gujarati Samaj ,Sleep,wikivoyage,red,,,,Gandhinagar , ,"A secure and decent place to stay if you are there for a day or two. A nice canteen with Gujarati food available. In the vicinity there is another good place available for fast food/lunch named ""SLV"".","(12.9771534, 77.5784005)"
17,,,,,,0.0,0.0,,,T.A.P.paradise ,Sleep,wikivoyage,red,,,,Hospital Road Avenue Road; cross near Abhinay Theatre & Menaka Theatre , ,,"(0, 0)"
18,,,,,,0.0,0.0,,,U. G. Classic ,Sleep,wikivoyage,red,,,,"OTC Road, Near Tavakal Mastan Dargah, Cottonpet, near Majestic ", ,,"(0, 0)"
19,,,,,,0.0,0.0,,,UG Deluxe ,Sleep,wikivoyage,red,,,,"Majestic, Thulsi Thotta ", ,You may want to take an auto instead of walking down if you are going after a rainy day as your shoes will get dirty.,"(0, 0)"
20,,,,,,0.0,0.0,,,Vardhaman Paradise ,Sleep,wikivoyage,red,,,,"Ganesh Lodge Building OTC Road, near Tavakal Mastan Dargah, Cottonpet, Majestic ", ,,"(0, 0)"
21,,,,,,12.97109,77.58765,,,YMCA ,Sleep,wikivoyage,red,,,,Nrupathunga Rd , ,No-frills hotel.,"(12.97109, 77.58765)"
22,,,,,,12.9390426,77.575291,,,Art of Living Hostel ,Sleep,wikivoyage,red,,,,Kanakapura Road ,https://www.artofliving.org/in-en/bangalore ,"Free food is given three times a day. Accommodation is shared between four people. The campus is undulating in terrain, and a free shuttle service is available between the numerous hostels and meditation centres. Very green campus with winding footpaths. Beware of snakes. (This hostel is two hours away from Bangalore city railway station in peak traffic.).","(12.9390426, 77.575291)"
23,,,,,,0.0,0.0,,,--,Sleep,wikivoyage,red,,,,,,,"(0, 0)"
0,,,,,,0.0,0.0,,,Balaji Residency ,Sleep_Budget,wikivoyage,red,,,,"First Cross Rd, Behind RTO, L N Colony, Yeswanthpur ", ,,"(0, 0)"
1,,,,,,0.0,0.0,,,Bangalore Residency ,Sleep_Budget,wikivoyage,red,,,, , ,Lift facility. Party hall attached.,"(0, 0)"
2,,,,,,12.9650246,77.5700688,,,Hotel Naveen ,Sleep_Budget,wikivoyage,red,,,,Cottonpet Main Road , ,Near Sri Krishna Vaibhava Restaurant.,"(12.9650246, 77.5700688)"
3,,,,,,0.0,0.0,,,Manjunatha Paradise Delux Inn ,Sleep_Budget,wikivoyage,red,,,,"First Main, Cottonpet ", ,,"(0, 0)"
4,,,,,,12.9745748,77.5705062,,,Sri Gajanana Lodge ,Sleep_Budget,wikivoyage,red,,,,Cottonpete Main Road , ,,"(12.9745748, 77.5705062)"
5,,,,,,0.0,0.0,,,Kamat Hotel ,Sleep_Budget,wikivoyage,red,,,,"227, Lalbagh West Gate R.V.Road, VV.Puram ", ,,"(0, 0)"
6,,,,,,12.9804534,77.6038789,,,Citizen Lodge ,Sleep_Budget,wikivoyage,red,,,,Lady Curzon Rd , ,Bare bones motel-style establishment is well located but leaves much to be desired in terms of cleanliness and overall quality.,"(12.9804534, 77.6038789)"
7,,,,,,0.0,0.0,,,FabHotel 29th Church's Inn ,Sleep_Budget,wikivoyage,red,,,,"#29th Church Street, off M.G. Road ",https://www.fabhotels.com/hotels-in-bangalore/fabhotel-29th-church-inn-mg-road.html ,,"(0, 0)"
8,,,,,,0.0,0.0,,,Address 24 Inn ,Sleep_Budget,wikivoyage,red,,,,"#54, Hebbal Kempapura, Behind Esteem Mall, 560024 ",https://bangalores.best/stay/address-24-inn ,,"(0, 0)"
9,,,,,,0.0,0.0,,,Hotel Grand Park ,Sleep_Budget,wikivoyage,red,,,,"OTC Road, near Tavakal Mastan Dargah, Cottonpet, near Majestic ", ,,"(0, 0)"
10,,,,,,0.0,0.0,,,Manju Lodge ,Sleep_Budget,wikivoyage,red,,,,Near Abhinay Theatre& Menaka Theatre Hospital Road Avenue Road , ,,"(0, 0)"
11,,,,,,0.0,0.0,,,Naga Residency ,Sleep_Budget,wikivoyage,red,,,,"OTC Road, near Tavakal Mastan Dargah, Cottonpet, near Majestic ", ,,"(0, 0)"
12,,,,,,0.0,0.0,,,Omshakthi palace ,Sleep_Budget,wikivoyage,red,,,,"OTC Road, near Tavakal Mastan Dargah, Cottonpet, near Majestic ", ,,"(0, 0)"
13,,,,,,0.0,0.0,,,Railway Retirement Room ,Sleep_Budget,wikivoyage,red,,,, , ,,"(0, 0)"
14,,,,,,0.0,0.0,,,Red Mount Lodge ,Sleep_Budget,wikivoyage,red,,,,"OTC Road, near Tavakkal Mastan Dargah, Cottonpet, near Majestic ", ,,"(0, 0)"
15,,,,,,12.9221357,77.5216694,,,Royal Regency Lodge ,Sleep_Budget,wikivoyage,red,,,,S. C. Rd ,http://www.royalregencylodge.com ,Clean rooms and convenient to the city’s local transports like the City bus station and the City Railway Station.,"(12.9221357, 77.5216694)"
16,,,,,,12.9771534,77.5784005,,,Shree Vaishnav Gujarati Samaj ,Sleep_Budget,wikivoyage,red,,,,Gandhinagar , ,"A secure and decent place to stay if you are there for a day or two. A nice canteen with Gujarati food available. In the vicinity there is another good place available for fast food/lunch named ""SLV"".","(12.9771534, 77.5784005)"
17,,,,,,0.0,0.0,,,T.A.P.paradise ,Sleep_Budget,wikivoyage,red,,,,Hospital Road Avenue Road; cross near Abhinay Theatre & Menaka Theatre , ,,"(0, 0)"
18,,,,,,0.0,0.0,,,U. G. Classic ,Sleep_Budget,wikivoyage,red,,,,"OTC Road, Near Tavakal Mastan Dargah, Cottonpet, near Majestic ", ,,"(0, 0)"
19,,,,,,0.0,0.0,,,UG Deluxe ,Sleep_Budget,wikivoyage,red,,,,"Majestic, Thulsi Thotta ", ,You may want to take an auto instead of walking down if you are going after a rainy day as your shoes will get dirty.,"(0, 0)"
20,,,,,,0.0,0.0,,,Vardhaman Paradise ,Sleep_Budget,wikivoyage,red,,,,"Ganesh Lodge Building OTC Road, near Tavakal Mastan Dargah, Cottonpet, Majestic ", ,,"(0, 0)"
21,,,,,,12.97109,77.58765,,,YMCA ,Sleep_Budget,wikivoyage,red,,,,Nrupathunga Rd , ,No-frills hotel.,"(12.97109, 77.58765)"
22,,,,,,12.9390426,77.575291,,,Art of Living Hostel ,Sleep_Budget,wikivoyage,red,,,,Kanakapura Road ,https://www.artofliving.org/in-en/bangalore ,"Free food is given three times a day. Accommodation is shared between four people. The campus is undulating in terrain, and a free shuttle service is available between the numerous hostels and meditation centres. Very green campus with winding footpaths. Beware of snakes. (This hostel is two hours away from Bangalore city railway station in peak traffic.).","(12.9390426, 77.575291)"
23,,,,,,0.0,0.0,,,--,Sleep_Budget,wikivoyage,red,,,,,,,"(0, 0)"
0,,,,,,12.97926,77.6377,,,Treebo Trend 9 Marks Inn ,Sleep_Mid-range,wikivoyage,red,,,,9 St Marks Rd ,https://www.treebo.com/hotels-in-bangalore/treebo-trend-9-marks-inn-indiranagar-21/ ,Complementary breakfast.,"(12.97926, 77.6377)"
1,,,,,,12.9749918,77.6087811,,,Ajantha ,Sleep_Mid-range,wikivoyage,red,,,,22 Mahatma Gandhi Rd ,http://hotelajantha.in/ ,Good simple hotel with a vegetarian restaurant.,"(12.9749918, 77.6087811)"
2,,,,,,12.98246,77.5945,,,Best Western The Capitol ,Sleep_Mid-range,wikivoyage,red,,,,Raj Bhavan Rd , ,,"(12.98246, 77.5945)"
3,,,,,,0.0,0.0,,,The Bouvice ,Sleep_Mid-range,wikivoyage,red,,,,"141C, S.T. Bed Layout, 1st Main Kormangala, Sector 4 ",http://www.bouvice.com ,A beautiful apartment hotel in Kormangala.,"(0, 0)"
4,,,,,,0.0,0.0,,,Chairman's Club & Resort ,Sleep_Mid-range,wikivoyage,red,,,,"No. 14/1, Kodigehalli Main Road, Sahakar Nagar, Hebbal (near Twin Tower) ",http://www.chairmansresort.com ,"Best for Airport transit passengers. It has AC and Suites rooms. It has a lounge bar (Lock N' Load), indoor swimming pool, Badminton court, garden restaurant, indoor AC restaurant free Wi-Fi and a fitness centre.","(0, 0)"
5,,,,,,0.0,0.0,,,--,Sleep_Mid-range,wikivoyage,red,,,,,,,"(0, 0)"
6,,,,,,0.0,0.0,,,Fantasy Golf Resort ,Sleep_Mid-range,wikivoyage,red,,,, ,http://www.fantasygolfresort.com ,,"(0, 0)"
7,,,,,,12.9838114,77.5853386,,,Fortune Park JP Celestial ,Sleep_Mid-range,wikivoyage,red,,,,Race Course Rd ,http://www.fortunehotels.in/hotel/Bengaluru-Fortune_Park_JP_Celestial.aspx ,,"(12.9838114, 77.5853386)"
8,,,,,,0.0,0.0,,,Hotel Bangalore Gate ,Sleep_Mid-range,wikivoyage,red,,,,"9 and 12, Gajanana Towers, K G Rd ",http://www.hotelbangaloregate.com/ ,"Executive, superior and premium rooms. All rooms are A/C with complimentary breakfast and Wi-Fi. 24-hour room service, 2 restaurants, ample car parking.","(0, 0)"
9,,,,,,0.0,0.0,,,Hotel Komfort Terraces ,Sleep_Mid-range,wikivoyage,red,,,,"No 301, 3rd floor, Bluemoon Complex M G. Road ",http://komfortgrouphotels.com/ ,,"(0, 0)"
10,,,,,,0.0,0.0,,,Hotel Presidency ,Sleep_Mid-range,wikivoyage,red,,,,"No. 22 Sadahalli Gate, Devanahalli Taluk ",http://www.hotelpresidencyblr.com/ ,24/7 reception.,"(0, 0)"
11,,,,,,12.9757994,77.6016921,,,Hotel St. Marks ,Sleep_Mid-range,wikivoyage,red,,,,St. Marks Rd , ,,"(12.9757994, 77.6016921)"
12,,,,,,0.0,0.0,,,Hotel Vrindavan ,Sleep_Mid-range,wikivoyage,red,,,,off MG Rd and very near to MG. Rd/Brigade Rd junction , ,Nice hotel with great South Indian food.,"(0, 0)"
13,,,,,,12.9659076,77.5954261,,,Hotel Woodlands ,Sleep_Mid-range,wikivoyage,red,,,,"No 5, Rajaram Mohan Roy Rd ", ,"Mid-range hotel, very clean, great views of the city, delicious free South Indian breakfast buffet for ₹3,400 per night for an A/C double (two single beds pushed together). Nice location for exploring the city. Long walk to M.G. Road, Garuda Mall, and Commercial Street.","(12.9659076, 77.5954261)"
14,,,,,,0.0,0.0,,,Maple Suites ,Sleep_Mid-range,wikivoyage,red,,,,"#142 & 143, Dollar Layout. 4th Main, BTM II Stage ",http://www.maplesuites.in ,Long and short-term stay.,"(0, 0)"
15,,,,,,13.18872575,77.62328120018364,,,Olde Bangalore ,Sleep_Mid-range,wikivoyage,red,,,,Tarabanahalli ,http://www.oldebangalore.in ,"Resort and hotel, events, receptions, multi-cuisine food, corporate event facilities, conferences.","(13.18872575, 77.62328120018364)"
16,,,,,,0.0,0.0,,,Prakruthi Club & Resort ,Sleep_Mid-range,wikivoyage,red,,,,"Plot no. 12A, Hegganahalli village, Kundana Hobli ",http://www.prakruthiclub.com ,"Accommodation for couples, family, or corporate bookings. A conference hall that can seat 120 people and meeting facilities. Coffee shop. Lounge bar, Wi-Fi.","(0, 0)"
17,,,,,,0.0,0.0,,,Silicon Hearth ,Sleep_Mid-range,wikivoyage,red,,,,"174, Nagvarapalya, Rahat Bagh, Behind Big Bazaar ", ,,"(0, 0)"
18,,,,,,0.0,0.0,,,Villa Camelot ,Sleep_Mid-range,wikivoyage,red,,,,"#94/95, 4th Cross, ECC Rd, Prithvi Layout, Whitefield ",http://www.villa-camelot.com/ ,Bed and breakfast run by a North Indian couple in the back lanes of ITPL. Cosy atmosphere.,"(0, 0)"
19,,,,,,13.0447417,77.6264511,,,Howard Johnson Bangalore Hebbal ,Sleep_Mid-range,wikivoyage,red,,,,"132, Thanisandra Main Road, Nagawara Junction ",http://www.hojobangalore.com/ ,,"(13.0447417, 77.6264511)"
0,,,,,,12.97882,77.7281,,,Bengaluru Marriott Hotel White ,Sleep_Splurge,wikivoyage,red,,,,"8th Rd, Whitefield ", ,,"(12.97882, 77.7281)"
1,,,,,,12.96582,77.59868,,,Chancery Pavilion ,Sleep_Splurge,wikivoyage,red,,,,Residency Rd , ,"Nice business hotel, good service and food","(12.96582, 77.59868)"
2,,,,,,12.97675,77.57528,,,"The Gateway Hotel, Bengaluru ",Sleep_Splurge,wikivoyage,red,,,,"66, Residency Road ",https://www.tajhotels.com/en-in/gateway/residency-road-bangalore/ ,The Gateway Hotel Bengaluru is among the top hotels in the city and has won the National Tourism Award for three years in a row.,"(12.97675, 77.57528)"
3,,,,,,12.95752,77.64422,,,Hotel Royal Orchid ,Sleep_Splurge,wikivoyage,red,,,,"Adjoining KGA Golf Course, Airport Rd ",https://www.royalorchidhotels.com/hotel-royal-orchid-bangalore/overview ,"Sometimes referred to as the ""Royal Orchid Park Plaza"". Not to be confused with Royal Orchid Central.","(12.95752, 77.64422)"
4,,,,,,12.96697,77.59556,,,ITC Gardenia ,Sleep_Splurge,wikivoyage,red,,,,Residency Rd ,https://www.itchotels.com/in/en/itcgardenia-bengaluru ,,"(12.96697, 77.59556)"
5,,,,,,12.99414,77.58597,,,ITC Windsor ,Sleep_Splurge,wikivoyage,red,,,,Sankey Rd ,https://www.itchotels.com/in/en/itcwindsor-bengaluru ,,"(12.99414, 77.58597)"
6,,,,,,12.97245,77.59479,,,JW Marriott Hotel Bengaluru ,Sleep_Splurge,wikivoyage,red,,,,"24/1, Vittal Mallya Rd ", ,,"(12.97245, 77.59479)"
7,,,,,,12.99225,77.58188,,,Lalit Ashok Hotel ,Sleep_Splurge,wikivoyage,red,,,,Kumara Krupa High Grounds ,http://www.nivalink.com/grandbangalore/ ,,"(12.99225, 77.58188)"
8,,,,,,12.96057,77.64848,,,The Leela Palace Bengaluru ,Sleep_Splurge,wikivoyage,red,,,,Airport Rd ,https://www.theleela.com/en_us/hotels-in-bengaluru/the-leela-palace-hotel-bengaluru/ ,,"(12.96057, 77.64848)"
9,,,,,,12.97332,77.618164,,,The Oberoi ,Sleep_Splurge,wikivoyage,red,,,,37-39 MG Rd ,http://www.oberoibangalore.com/index.asp?leftinfo,,"(12.97332, 77.618164)"
10,,,,,,0.0,0.0,,,Park Hotel ,Sleep_Splurge,wikivoyage,red,,,,14/7 MG Rd ,http://www.theparkhotels.com/banglore_home.htm ,,"(0, 0)"
11,,,,,,12.95375,77.63943,,,The Paul ,Sleep_Splurge,wikivoyage,red,,,,"139/28, Domlur Layout ", ,,"(12.95375, 77.63943)"
12,,,,,,12.9607621,77.6399845,,,Streling Mac Hotel ,Sleep_Splurge,wikivoyage,red,,,,"134, HAL Rd ", ,,"(12.9607621, 77.6399845)"
13,,,,,,12.97328,77.61985,,,Taj MG Road ,Sleep_Splurge,wikivoyage,red,,,,41/3 MG Rd ,https://www.tajhotels.com/en-in/taj/taj-mgroad-bengaluru/ ,,"(12.97328, 77.61985)"
14,,,,,,12.98,77.58,,,Taj West End ,Sleep_Splurge,wikivoyage,red,,,,Race Course Rd ,https://www.tajhotels.com/en-in/taj/taj-west-end-bengaluru/ ,"Nestled amidst 20 acres of flora and defined by its illustrious heritage and colonial charm. Started by the Bronsons as a 10-room inn in 1887, it now has 117 magnificent rooms and suites.","(12.98, 77.58)"
15,,,,,,12.9725,77.60857,,,Vivanta Bengaluru Residency Road ,Sleep_Splurge,wikivoyage,red,,,, , ,,"(12.9725, 77.60857)"
16,,,,,,12.98671,77.73762,,,Vivanta Bengaluru Whitefield ,Sleep_Splurge,wikivoyage,red,,,, , ,,"(12.98671, 77.73762)"
0,,,,,,0.0,0.0,,,--,Stay safe,wikivoyage,red,,,,,,,"(0, 0)"
1,,,,,,0.0,0.0,,,--,Stay safe,wikivoyage,red,,,,,,,"(0, 0)"
2,,,,,,0.0,0.0,,,--,Stay safe,wikivoyage,red,,,,,,,"(0, 0)"
3,,,,,,0.0,0.0,,,--,Stay safe,wikivoyage,red,,,,,,,"(0, 0)"
4,,,,,,0.0,0.0,,,--,Stay safe,wikivoyage,red,,,,,,,"(0, 0)"
5,,,,,,0.0,0.0,,,--,Stay safe,wikivoyage,red,,,,,,,"(0, 0)"
6,,,,,,0.0,0.0,,,--,Stay safe,wikivoyage,red,,,,,,,"(0, 0)"
0,,,,,,0.0,0.0,,,--,Connect,wikivoyage,red,,,,,,,"(0, 0)"
0,,,,,,0.0,0.0,,,--,Connect_Cellular,wikivoyage,red,,,,,,,"(0, 0)"
0,,,,,,0.0,0.0,,,--,Connect_Internet,wikivoyage,red,,,,,,,"(0, 0)"
0,,,,,,13.0546,77.5919,,,Aster CMI Hospital ,Cope,wikivoyage,red,,,, ,http://asterbangalore.com/ ,"A super-speciality hospital, part of Aster DM Healthcare group. It has contemporary state-of-the-art facilities accommodating close to 500 beds and offers comprehensive primary care to quaternary care services with Centres of Excellence in Cardiac Sciences, Neurosciences, Gastroenterology Sciences, Surgery and Allied Specialties, Integrated Liver Care, Organ Transplant, Urology and Nephrology, Orthopaedics, Women’s Health, and Child & Adolescent Health.","(13.0546, 77.5919)"
1,,,,,,12.98804,77.72863,,,Manipal Hospital Whitefield ,Cope,wikivoyage,red,,,,Whitefield Rd ,https://whitefield.manipalhospitals.com/ ,,"(12.98804, 77.72863)"
2,,,,,,12.98125,77.72935,,,Sri Sathya Sai Super Speciality Hospital ,Cope,wikivoyage,red,,,, , ,A hospital with an impressive architectural marvel.,"(12.98125, 77.72935)"
3,,,,,,12.9757,77.7291,,,Vydehi Institute of Medical Sciences and Research Centre ,Cope,wikivoyage,red,,,,"#82, Nallurahalli, Whitefield ",https://vims.ac.in/ ,One of India's largest super speciality hospitals.,"(12.9757, 77.7291)"
0,,,,,,0.0,0.0,,,--,Cope_Pharmacies,wikivoyage,red,,,,,,,"(0, 0)"
0,,,,,,13.0546,77.5919,,,Aster CMI Hospital ,Cope_Hospitals,wikivoyage,red,,,, ,http://asterbangalore.com/ ,"A super-speciality hospital, part of Aster DM Healthcare group. It has contemporary state-of-the-art facilities accommodating close to 500 beds and offers comprehensive primary care to quaternary care services with Centres of Excellence in Cardiac Sciences, Neurosciences, Gastroenterology Sciences, Surgery and Allied Specialties, Integrated Liver Care, Organ Transplant, Urology and Nephrology, Orthopaedics, Women’s Health, and Child & Adolescent Health.","(13.0546, 77.5919)"
1,,,,,,12.98804,77.72863,,,Manipal Hospital Whitefield ,Cope_Hospitals,wikivoyage,red,,,,Whitefield Rd ,https://whitefield.manipalhospitals.com/ ,,"(12.98804, 77.72863)"
2,,,,,,12.98125,77.72935,,,Sri Sathya Sai Super Speciality Hospital ,Cope_Hospitals,wikivoyage,red,,,, , ,A hospital with an impressive architectural marvel.,"(12.98125, 77.72935)"
3,,,,,,12.9757,77.7291,,,Vydehi Institute of Medical Sciences and Research Centre ,Cope_Hospitals,wikivoyage,red,,,,"#82, Nallurahalli, Whitefield ",https://vims.ac.in/ ,One of India's largest super speciality hospitals.,"(12.9757, 77.7291)"
0,,,,,,0.0,0.0,,,Canada ,Cope_Consulates,wikivoyage,red,,,, ,https://www.canada.ca/en/immigration-refugees-citizenship/corporate/contact-ircc/offices/international-visa-offices/bangalore.html ,,"(0, 0)"
1,,,,,,0.0,0.0,,,France ,Cope_Consulates,wikivoyage,red,,,, ,http://bangalore.ambafrance-in.org/ ,,"(0, 0)"
2,,,,,,0.0,0.0,,,Germany ,Cope_Consulates,wikivoyage,red,,,,"2nd & 3rd floor, Cash Pharmacy Building Corner St Marks &, Residency Rd ",http://www.india.diplo.de/Vertretung/indien/en/02__Bangalore/Bangalore.html ,,"(0, 0)"
3,,,,,,0.0,0.0,,,Israel ,Cope_Consulates,wikivoyage,red,,,, ,http://embassies.gov.il/bangalore/Pages/default.aspx ,,"(0, 0)"
4,,,,,,0.0,0.0,,,Japan ,Cope_Consulates,wikivoyage,red,,,, ,https://www.bengaluru.in.emb-japan.go.jp/itprtop_en/index.html ,,"(0, 0)"
5,,,,,,0.0,0.0,,,United Kingdom ,Cope_Consulates,wikivoyage,red,,,, ,https://www.gov.uk/world/organisations/british-deputy-high-commission-bangalore ,,"(0, 0)"
0,,,,,,0.0,0.0,,,--,Cope_Consulates_Currency Exchange,wikivoyage,red,,,,,,,"(0, 0)"
0,,,,,,12.856005,77.8030285,,,Chandra Choodeswarar Temple ,Nearby,wikivoyage,red,,,,"Hosur, Tamil Nadu ", ,An ancient Shiva temple. The exact history of the temple is unknown. This is the only temple in Northern Tamil Nadu that has got a golden car that is used for temple functions.,"(12.856005, 77.8030285)"
0,,,,,,0.0,0.0,,,--,Go next,wikivoyage,red,,,,,,,"(0, 0)"
1,,,,,,0.0,0.0,,,--,Go next,wikivoyage,red,,,,,,,"(0, 0)"
2,,,,,,0.0,0.0,,,--,Go next,wikivoyage,red,,,,,,,"(0, 0)"
3,,,,,,0.0,0.0,,,--,Go next,wikivoyage,red,,,,,,,"(0, 0)"
4,,,,,,0.0,0.0,,,--,Go next,wikivoyage,red,,,,,,,"(0, 0)"
5,,,,,,0.0,0.0,,,--,Go next,wikivoyage,red,,,,,,,"(0, 0)"
6,,,,,,0.0,0.0,,,--,Go next,wikivoyage,red,,,,,,,"(0, 0)"
7,,,,,,0.0,0.0,,,--,Go next,wikivoyage,red,,,,,,,"(0, 0)"
8,,,,,,0.0,0.0,,,--,Go next,wikivoyage,red,,,,,,,"(0, 0)"
